{"type":"FeatureCollection","features":[{"type":"Feature","properties":{"ClaseSuelo":"SUELO NO URBANIZABLE","NuclRural":"0","AreaLamber":1190.1830497,"Shape_STAr":0.00118775169416},"geometry":{"type":"MultiPolygon","coordinates":[[[[-5.366930961999969,35.918019720000075],[-5.355389343999946,35.91068999500004],[-5.348024443999975,35.90788326300003],[-5.344592374999934,35.90187352100003],[-5.344347966999976,35.90083343300006],[-5.349290577999966,35.89923914700006],[-5.346849712999926,35.89502534600007],[-5.349909263999962,35.89410711800008],[-5.348454776999972,35.89121884000008],[-5.350850393999963,35.89112272500006],[-5.349420966999958,35.89039250900004],[-5.351046296999925,35.888779053000064],[-5.350900767999974,35.88754638200004],[-5.346531004999974,35.889436044000036],[-5.348966517999941,35.886348068000075],[-5.3509709719999705,35.88623290600003],[-5.348055357999954,35.88364960800004],[-5.344967285999928,35.88364816400008],[-5.349187410999946,35.881060183000045],[-5.345604894999951,35.87746492000008],[-5.345586809999929,35.87314531200008],[-5.348341460999961,35.87603980500006],[-5.350497966999967,35.876132651000034],[-5.3511530749999565,35.87270205400006],[-5.356026462999978,35.87282756500008],[-5.360418412999934,35.87737630100003],[-5.370909311999981,35.88048506600006],[-5.373816449999936,35.88423941000008],[-5.3757636879999495,35.88910604900008],[-5.374931791999927,35.89380379200003],[-5.377833661999944,35.89591397600003],[-5.376870614999973,35.904851078000036],[-5.382087511999941,35.91226253800005],[-5.378428733999954,35.91715093000005],[-5.375347165999926,35.91608515100006],[-5.366930961999969,35.918019720000075]],[[-5.372399471999927,35.916452347000074],[-5.374819772999956,35.915461950000065],[-5.37023394299996,35.91550075500004],[-5.372399471999927,35.916452347000074]]],[[[-5.288280541999939,35.906711476000055],[-5.283891002999951,35.90308178300006],[-5.2837710249999645,35.90077397700003],[-5.278677683999945,35.90064756900006],[-5.278206275999935,35.89795116300007],[-5.280517489999966,35.89428990300007],[-5.282840023999938,35.89503971600004],[-5.288787809999974,35.89032532700003],[-5.290632167999945,35.891602790000036],[-5.287793052999973,35.891205926000055],[-5.283419152999954,35.89517436800003],[-5.280843242999936,35.89512174200007],[-5.282367443999931,35.898614520000024],[-5.285249688999954,35.899506246000044],[-5.286273481999956,35.89799026400004],[-5.285177419999968,35.89692855800007],[-5.2876827519999665,35.893559733000075],[-5.290903030999971,35.89390098500007],[-5.293521548999934,35.89163512400006],[-5.295471132999978,35.896321002000036],[-5.292279488999952,35.89897183800008],[-5.29635869699996,35.901248063000025],[-5.299362447999954,35.89993302500005],[-5.297210030999963,35.90210313000006],[-5.290561958999945,35.90404212900006],[-5.288280541999939,35.906711476000055]]]]}},{"type":"Feature","properties":{"ClaseSuelo":"SUELO URBANIZABLE DELIMITADO O SECTORIZADO","NuclRural":"0","AreaLamber":103.67079013,"Shape_STAr":0.00010345133066},"geometry":{"type":"MultiPolygon","coordinates":[[[[-5.337569922999933,35.884365469000045],[-5.334303377999959,35.881580464000024],[-5.340811649999978,35.87614673100006],[-5.342716453999969,35.87938740800007],[-5.344680437999955,35.87987216600004],[-5.344484588999933,35.881543717000056],[-5.337569922999933,35.884365469000045]]],[[[-5.34535165099993,35.89554457300005],[-5.345098517999929,35.893642793000026],[-5.341688666999971,35.895196931000044],[-5.343897143999925,35.894100105000064],[-5.343677897999953,35.89097229500004],[-5.346526641999958,35.889527592000036],[-5.34992759499994,35.89406393500008],[-5.34535165099993,35.89554457300005]]],[[[-5.293808310999964,35.89298809600007],[-5.295223601999965,35.891309000000035],[-5.2982919689999335,35.89310478200008],[-5.2964498009999375,35.897215188000075],[-5.293808310999964,35.89298809600007]]],[[[-5.284276266999939,35.899569101000054],[-5.282157767999934,35.898353676000056],[-5.281058541999926,35.89485196600003],[-5.286215044999949,35.89513008700004],[-5.285161037999956,35.897013782000045],[-5.286245238999925,35.898140613000066],[-5.284276266999939,35.899569101000054]]]]}},{"type":"Feature","properties":{"ClaseSuelo":"SUELO URBANIZABLE NO DELIMITADO O SECTORIZADO","NuclRural":"0","AreaLamber":33.43091477,"Shape_STAr":0.0000333629556843},"geometry":{"type":"MultiPolygon","coordinates":[[[[-5.285519139999963,35.89484371400005],[-5.283800370999927,35.89487570600005],[-5.287695816999928,35.89124527600006],[-5.295158654999966,35.89071186100006],[-5.294966713999941,35.892561957000055],[-5.293327504999979,35.89164972800006],[-5.290910417999953,35.893898239000066],[-5.288659798999959,35.89312202900004],[-5.285519139999963,35.89484371400005]]],[[[-5.34748430999997,35.89867174600005],[-5.343606129999955,35.897838860000036],[-5.346638537999979,35.89494177800003],[-5.34941416099997,35.897877279000056],[-5.3492314289999285,35.89929082700007],[-5.34748430999997,35.89867174600005]]]]}},{"type":"Feature","properties":{"ClaseSuelo":"SUELO URBANO","NuclRural":"0","AreaLamber":553.6978395,"Shape_STAr":0.000552530069413},"geometry":{"type":"MultiPolygon","coordinates":[[[[-5.344898086999933,35.90061796800006],[-5.334635205999973,35.89392845500004],[-5.3310624629999666,35.89700714000003],[-5.326392827999939,35.89677006200003],[-5.324107566999942,35.898574274000055],[-5.324850081999955,35.90032444600007],[-5.326529990999973,35.89967950400006],[-5.325025985999957,35.90097841900007],[-5.323070881999968,35.899177714000075],[-5.3116080479999255,35.89628747200004],[-5.320058417999974,35.898551815000076],[-5.3248335259999635,35.896901924000076],[-5.317963731999953,35.891983767000056],[-5.319309106999981,35.89174136400004],[-5.317400960999976,35.89124954400006],[-5.314265878999947,35.89323258100006],[-5.317916857999933,35.889895006000074],[-5.313517262999937,35.88907079100005],[-5.315166719999979,35.89095543700006],[-5.309991181999976,35.890060979000054],[-5.308544532999974,35.89072923800006],[-5.3094779229999745,35.89204498200007],[-5.30842652299998,35.89078523000006],[-5.306684055999938,35.891564869000035],[-5.307522696999968,35.89295133300004],[-5.306480146999945,35.89152112900007],[-5.30491746499996,35.89305681800005],[-5.302367710999931,35.89277647000006],[-5.301985768999941,35.89471473200007],[-5.307900715999949,35.89564543700004],[-5.300658898999927,35.89415541400007],[-5.298362576999978,35.89643555300006],[-5.2991994529999715,35.89946819100004],[-5.29635869699996,35.901248063000025],[-5.292161698999962,35.89827871700004],[-5.299619983999946,35.894584386000076],[-5.2975308209999525,35.89416940600006],[-5.2982919689999335,35.89310478200008],[-5.295158654999966,35.89071186100006],[-5.292908138999962,35.89038199700008],[-5.2918056489999685,35.891820421000034],[-5.290128596999978,35.890606974000036],[-5.293848663999938,35.88871207200003],[-5.296773188999964,35.889768213000025],[-5.300206183999933,35.88613425400007],[-5.307125674999952,35.884343941000054],[-5.318724756999927,35.887368749000075],[-5.318682754999941,35.885905268000045],[-5.320263082999929,35.88665723400004],[-5.324027731999934,35.883194951000064],[-5.324649864999969,35.88183849300003],[-5.323401413999932,35.881282974000044],[-5.328076854999949,35.87841417200008],[-5.333531068999946,35.879581604000066],[-5.338140286999931,35.87823542000007],[-5.343940142999941,35.87089500900004],[-5.340608277999934,35.87638191800005],[-5.334303377999959,35.881580464000024],[-5.336448025999971,35.884138189000055],[-5.339884333999976,35.88438653500003],[-5.339853910999977,35.88266613800005],[-5.346162471999946,35.88311313100007],[-5.3509709719999705,35.88623290600003],[-5.3451113159999295,35.886343941000064],[-5.34866849499997,35.88681672900003],[-5.346531004999974,35.889436044000036],[-5.347389027999952,35.89002002400008],[-5.349718981999956,35.88789247900007],[-5.351009755999939,35.88754387900008],[-5.351046296999925,35.888779053000064],[-5.349420966999958,35.89039250900004],[-5.350850393999963,35.89112272500006],[-5.348454776999972,35.89121884000008],[-5.349592585999972,35.893258665000076],[-5.346732126999939,35.889584067000044],[-5.343536126999936,35.891155464000065],[-5.343897143999925,35.894100105000064],[-5.341688666999971,35.895196931000044],[-5.3444339749999585,35.89447043900003],[-5.3452169629999275,35.89673034700007],[-5.343624281999951,35.89808538500006],[-5.347951666999961,35.899185775000035],[-5.344898086999933,35.90061796800006]],[[-5.330507521999948,35.89409427800007],[-5.328516954999941,35.89302974200007],[-5.327841026999977,35.89525049900004],[-5.331166036999946,35.89514188100003],[-5.330507521999948,35.89409427800007]],[[-5.3342335969999795,35.893063545000075],[-5.33598057699993,35.891214509000065],[-5.334460751999927,35.890335177000054],[-5.3342335969999795,35.893063545000075]],[[-5.327289728999972,35.89061896100003],[-5.325871697999958,35.89147062700005],[-5.327151423999965,35.891997451000066],[-5.327289728999972,35.89061896100003]],[[-5.336717627999974,35.89169920000006],[-5.335060412999951,35.89321000500007],[-5.337349833999951,35.89266048500008],[-5.336717627999974,35.89169920000006]],[[-5.302567126999975,35.88923228500005],[-5.305157169999973,35.88782872100006],[-5.304298122999967,35.88627483700003],[-5.30090759899997,35.88729822000005],[-5.297213743999976,35.89111128600007],[-5.300376691999929,35.892219372000056],[-5.299687189999929,35.89112012100003],[-5.301568040999939,35.89019550200004],[-5.299556539999969,35.890471568000066],[-5.302567126999975,35.88923228500005]],[[-5.29727438499998,35.89221870100005],[-5.298490650999952,35.89198711200004],[-5.296937084999968,35.89130324800004],[-5.29727438499998,35.89221870100005]],[[-5.311286352999957,35.887070444000074],[-5.311541207999937,35.886594040000034],[-5.31059420899993,35.88657299300007],[-5.311286352999957,35.887070444000074]],[[-5.3114971519999585,35.88696556600007],[-5.3129428959999245,35.887814235000064],[-5.312906595999948,35.887175941000066],[-5.3114971519999585,35.88696556600007]],[[-5.330682064999962,35.88426193400005],[-5.3331703989999255,35.88399713500007],[-5.334130668999933,35.88079857300005],[-5.329025037999941,35.88345989900006],[-5.330682064999962,35.88426193400005]]],[[[-5.344182553999929,35.87640821400004],[-5.343169780999972,35.873635507000074],[-5.344524665999927,35.87100508800006],[-5.348159947999932,35.87217093100003],[-5.348796374999949,35.874918154000056],[-5.350591794999957,35.87553476800008],[-5.348341460999961,35.87603980500006],[-5.346525829999962,35.872999296000046],[-5.344727427999942,35.875425635000056],[-5.345375652999962,35.877790650000065],[-5.344182553999929,35.87640821400004]]],[[[-5.291579054999943,35.88936817300004],[-5.291464050999934,35.88930591800005],[-5.291831744999968,35.88928817400006],[-5.291579054999943,35.88936817300004]]],[[[-5.370460740999931,35.915585692000036],[-5.3709552239999425,35.915133721000075],[-5.371463342999959,35.91574374600003],[-5.370460740999931,35.915585692000036]]]]}},{"type":"Feature","properties":{"ClaseSuelo":"SUELO URBANO NO CONSOLIDADO","NuclRural":"0","AreaLamber":89.19637061,"Shape_STAr":0.000089004099763},"geometry":{"type":"MultiPolygon","coordinates":[[[[-5.344562486999962,35.883118575000026],[-5.342972136999947,35.88299622000005],[-5.344680437999955,35.87987216600004],[-5.342716453999969,35.87938740800007],[-5.340811649999978,35.87614673100006],[-5.344420064999952,35.87099074300005],[-5.343169401999944,35.87364893600005],[-5.344304576999946,35.87691397700007],[-5.345375652999962,35.877790650000065],[-5.345544844999949,35.87542283300007],[-5.345604894999951,35.87746492000008],[-5.349187521999966,35.881055728000035],[-5.344562486999962,35.883118575000026]]],[[[-5.338246313999946,35.87842480900008],[-5.339149774999953,35.87802677600007],[-5.334979769999961,35.880417762000036],[-5.338246313999946,35.87842480900008]]],[[[-5.330047954999941,35.88403914200006],[-5.329025037999941,35.88345989900006],[-5.334134940999945,35.88080334800003],[-5.3331703989999255,35.88399713500007],[-5.330047954999941,35.88403914200006]]],[[[-5.3105697019999525,35.886626539000076],[-5.311541207999937,35.886594040000034],[-5.3113147629999276,35.88707875700004],[-5.3105697019999525,35.886626539000076]]],[[[-5.345183615999929,35.88619617100005],[-5.345749012999931,35.88536838700003],[-5.350390067999967,35.88617025800005],[-5.345183615999929,35.88619617100005]]],[[[-5.312204428999962,35.88763637200003],[-5.311621521999939,35.886690971000064],[-5.312906595999948,35.887175941000066],[-5.312204428999962,35.88763637200003]]],[[[-5.300065767999968,35.89193738900008],[-5.297213743999976,35.89111128600007],[-5.300944084999969,35.88725380300008],[-5.304301849999945,35.88627728900008],[-5.305157169999973,35.88782872100006],[-5.29955653899998,35.890471568000066],[-5.301568040999939,35.89019550200004],[-5.300065767999968,35.89193738900008]],[[-5.29809980899995,35.88992614000006],[-5.298102722999943,35.88991069800005],[-5.298100246999979,35.88991390500007],[-5.29809980899995,35.88992614000006]]],[[[-5.327066348999949,35.89065696600005],[-5.327151423999965,35.891997451000066],[-5.325871697999958,35.89147062700005],[-5.327066348999949,35.89065696600005]]],[[[-5.296866822999959,35.89206478800003],[-5.297745204999956,35.89116984700007],[-5.298490650999952,35.89198711200004],[-5.296866822999959,35.89206478800003]]],[[[-5.334705300999929,35.89314600800003],[-5.334365455999944,35.890336381000054],[-5.33598057699993,35.891214509000065],[-5.334705300999929,35.89314600800003]]],[[[-5.335838852999927,35.892387531000054],[-5.3375977099999545,35.89228222600008],[-5.335060412999951,35.89321000500007],[-5.335838852999927,35.892387531000054]]],[[[-5.298869366999952,35.895118051000054],[-5.297881381999957,35.894526452000036],[-5.298834598999974,35.89391722700003],[-5.298869366999952,35.895118051000054]]],[[[-5.327863372999957,35.895177243000035],[-5.328516954999941,35.89302974200007],[-5.331403931999944,35.894784695000055],[-5.327863372999957,35.895177243000035]]],[[[-5.345084879999945,35.89365666100008],[-5.345633138999972,35.89534747700003],[-5.344620615999929,35.89515221200003],[-5.345084879999945,35.89365666100008]]],[[[-5.299228553999967,35.89929317800005],[-5.298362576999978,35.89643555300006],[-5.300743774999944,35.89414495500006],[-5.299228553999967,35.89929317800005]]],[[[-5.373137042999929,35.916512761000035],[-5.3702979069999515,35.91562640400008],[-5.374819772999956,35.915461950000065],[-5.373137042999929,35.916512761000035]]]]}}]}