{"type":"FeatureCollection","features":[{"type":"Feature","properties":{"ClaseSuelo":"SISTEMAS GENERALES","NuclRural":"0","AreaLamber":7.34239209,"Shape_STAr":0.00000728146160591},"geometry":{"type":"MultiPolygon","coordinates":[[[[-2.9489996579999342,35.302565865000076],[-2.9522075019999647,35.30519370600007],[-2.9490050629999587,35.30411960200007],[-2.9489996579999342,35.302565865000076]]],[[[-2.946339329999944,35.27193897300003],[-2.944423978999964,35.269569784000055],[-2.948875333999979,35.27138978900007],[-2.95105994599993,35.270639293000045],[-2.9496067839999682,35.27261670100006],[-2.948052711999935,35.27125100000006],[-2.946173157999965,35.27119430000005],[-2.947051349999981,35.272896616000025],[-2.946339329999944,35.27193897300003]]]]}},{"type":"Feature","properties":{"ClaseSuelo":"SUELO NO URBANIZABLE","NuclRural":"0","AreaLamber":671.7314881,"Shape_STAr":0.000666166886498},"geometry":{"type":"MultiPolygon","coordinates":[[[[-2.9525779099999454,35.320000382000046],[-2.9491969639999525,35.31597329400006],[-2.944708435999928,35.315082793000045],[-2.9472162179999373,35.308672123000065],[-2.9420079219999593,35.30303078600008],[-2.9389456129999303,35.30254398500006],[-2.93522085099994,35.29667757500005],[-2.9356407719999424,35.29473698000004],[-2.933674638999946,35.29604726000008],[-2.9321300449999512,35.293639676000055],[-2.9250534119999543,35.293273285000055],[-2.92325255399993,35.289577619000056],[-2.9242754819999277,35.28858801600006],[-2.9252917479999496,35.29146949100004],[-2.9285398179999333,35.290631880000035],[-2.9293958339999335,35.292851116000065],[-2.931739931999971,35.292996274000075],[-2.9311059299999442,35.29100694400006],[-2.9349028339999563,35.29083249400003],[-2.934027847999971,35.29259908200004],[-2.9359186479999266,35.292332077000026],[-2.93263247699997,35.29253348100008],[-2.9322325349999687,35.29431492700007],[-2.933821322999961,35.29528026500003],[-2.934961944999941,35.29379028300008],[-2.938659159999929,35.30068913500003],[-2.9414230559999623,35.300963531000036],[-2.939577948999954,35.30209190200003],[-2.9440046209999764,35.30099055100004],[-2.944229954999969,35.29909052200003],[-2.9442582089999405,35.30116174800003],[-2.9492192689999683,35.30246325400003],[-2.9490050629999587,35.30411960200007],[-2.9522075019999647,35.30519370600007],[-2.951723602999948,35.303564262000066],[-2.9551327649999735,35.302002119000065],[-2.9579176459999417,35.29801120700006],[-2.9598101239999437,35.30283242500008],[-2.9617655519999744,35.30198717500008],[-2.964197254999931,35.297126641000034],[-2.959017772999971,35.29685335100004],[-2.9566464389999396,35.29493151600008],[-2.9589673609999636,35.296341899000026],[-2.9617764959999704,35.295787561000054],[-2.96211911599994,35.29298707800007],[-2.9654070519999323,35.29186780900005],[-2.961577257999977,35.29199813900004],[-2.957892949999973,35.28865472200005],[-2.9572286319999534,35.290859752000074],[-2.95537528899996,35.291400355000064],[-2.9577361719999544,35.28932677800003],[-2.9560689869999806,35.28588648200002],[-2.9566868439999325,35.282257608000066],[-2.9514217169999597,35.276991587000055],[-2.9492055459999733,35.27155637300007],[-2.950967076999973,35.270521133000045],[-2.9488877589999447,35.27133637700007],[-2.9471783719999394,35.26972344200004],[-2.9381909719999726,35.26924633100003],[-2.9363850689999254,35.270667400000036],[-2.9353695649999736,35.26916149400006],[-2.9280761409999627,35.27311072600003],[-2.9330686109999533,35.27495081100005],[-2.939152801999967,35.28590131100003],[-2.9413389839999695,35.28662627600005],[-2.938277722999942,35.28612837600008],[-2.936415264999937,35.28956848000007],[-2.933220404999929,35.28961716600003],[-2.933164061999946,35.28818848000003],[-2.935594402999925,35.28958675900003],[-2.935674522999932,35.28784544500007],[-2.9330198059999475,35.287083546000076],[-2.9318171579999444,35.289090430000044],[-2.9331094789999383,35.28662716300005],[-2.936274846999936,35.28752207900004],[-2.9375520539999798,35.28499889300008],[-2.9361023869999485,35.28316933100007],[-2.9369088759999613,35.281126561000065],[-2.933153587999925,35.27591072100006],[-2.927565409999943,35.27457637400005],[-2.92471623199998,35.27887564800005],[-2.929822104999971,35.271568847000026],[-2.9388053879999347,35.26744437100007],[-2.9505423189999647,35.265488531000074],[-2.9541526209999347,35.27273965300003],[-2.96844843599996,35.28199614700003],[-2.9676725309999483,35.28611401400008],[-2.9648524119999706,35.28717272600005],[-2.9652463469999475,35.288428459000045],[-2.9702955079999356,35.28867777200003],[-2.967170019999969,35.30285881200007],[-2.961026310999955,35.31432974400008],[-2.9525779099999454,35.320000382000046]],[[-2.955559421999965,35.305429994000065],[-2.9542161579999515,35.306754358000035],[-2.9557096529999285,35.30668766600007],[-2.955559421999965,35.305429994000065]]],[[[-2.9492567999999437,35.27759442400003],[-2.9477045539999267,35.27514787600006],[-2.948510512999974,35.27495557300006],[-2.9492567999999437,35.27759442400003]]],[[[-2.941407935999962,35.28681080700005],[-2.9417742979999275,35.28677846800008],[-2.9416015639999387,35.287040654000066],[-2.941407935999962,35.28681080700005]]],[[[-2.941806933999942,35.28693750800005],[-2.942383839999934,35.28702803600004],[-2.9421936789999563,35.28734781400004],[-2.941806933999942,35.28693750800005]]],[[[-2.9422815979999655,35.28736929000007],[-2.943777175999969,35.287287218000074],[-2.9456140549999645,35.288269469000056],[-2.9422815979999655,35.28736929000007]]],[[[-2.945651482999949,35.28854270200003],[-2.9472564189999275,35.290135356000064],[-2.9468608039999253,35.290179357000056],[-2.945651482999949,35.28854270200003]]],[[[-2.949912526999981,35.29333627800003],[-2.9468739229999414,35.29033226400003],[-2.9536667659999694,35.29168612900003],[-2.9525850509999714,35.29311463500005],[-2.9537151599999447,35.29353552600003],[-2.949912526999981,35.29333627800003]]],[[[-2.9547779429999537,35.29347326000004],[-2.957160888999965,35.293461937000075],[-2.9564443619999565,35.29469352000007],[-2.9547779429999537,35.29347326000004]]],[[[-2.9374787609999657,35.29937069700003],[-2.937525467999933,35.29942157700003],[-2.9375028689999567,35.29948720900006],[-2.9374787609999657,35.29937069700003]]],[[[-2.9377428519999285,35.301084693000064],[-2.9378367609999714,35.301259671000025],[-2.9376478379999753,35.30120375900003],[-2.9377428519999285,35.301084693000064]]],[[[-2.945122744999935,35.29992065600004],[-2.946301175999963,35.29925528000007],[-2.9459268739999516,35.30161689800008],[-2.945122744999935,35.29992065600004]]],[[[-2.942410600999949,35.30366523300006],[-2.942414853999935,35.303716903000065],[-2.9423861449999436,35.30371752000008],[-2.942410600999949,35.30366523300006]]],[[[-2.9423340949999783,35.30374887500005],[-2.942379058999961,35.303782890000036],[-2.9423257199999284,35.303771323000035],[-2.9423340949999783,35.30374887500005]]],[[[-2.943729884999925,35.30508882500004],[-2.9437887599999613,35.30520904900004],[-2.943758900999967,35.30528017900008],[-2.943729884999925,35.30508882500004]]],[[[-2.943813789999979,35.305280836000065],[-2.943834466999931,35.30528391100006],[-2.9438477539999326,35.305317100000025],[-2.943813789999979,35.305280836000065]]],[[[-2.9438724809999712,35.30534903100005],[-2.9439536609999664,35.30534537200003],[-2.943924931999959,35.30537403300008],[-2.9438724809999712,35.30534903100005]]],[[[-2.9438438019999467,35.30546371400004],[-2.9438966929999424,35.30548925700003],[-2.9438215649999506,35.30548895100003],[-2.9438438019999467,35.30546371400004]]],[[[-2.9439514589999476,35.305668179000065],[-2.943919163999965,35.305603061000056],[-2.944000889999927,35.305606616000034],[-2.9439514589999476,35.305668179000065]]],[[[-2.9441980549999585,35.30585584600004],[-2.9442250839999247,35.305899140000065],[-2.944195504999925,35.30588415900007],[-2.9441980549999585,35.30585584600004]]],[[[-2.9442647929999453,35.305900241000074],[-2.9443100839999374,35.30594110900006],[-2.9442747739999504,35.30594271500007],[-2.9442647929999453,35.305900241000074]]],[[[-2.943821669999977,35.30597469600008],[-2.9437512909999555,35.305945088000044],[-2.943809078999948,35.30588957000003],[-2.943821669999977,35.30597469600008]]],[[[-2.9442094209999254,35.30596297300008],[-2.9442234149999535,35.30592736300008],[-2.9442944389999752,35.305978792000076],[-2.9442094209999254,35.30596297300008]]],[[[-2.9444703369999274,35.30596183100005],[-2.94450649099997,35.30601360500003],[-2.944459199999926,35.306001320000064],[-2.9444703369999274,35.30596183100005]]],[[[-2.944695352999929,35.30602018400003],[-2.9448015829999576,35.30606261200006],[-2.9447373199999447,35.30609738800007],[-2.944695352999929,35.30602018400003]]],[[[-2.9440821899999605,35.30622972700007],[-2.94413936899997,35.30625887800005],[-2.944094439999958,35.30633108400008],[-2.9440821899999605,35.30622972700007]]],[[[-2.9458110209999404,35.307405337000034],[-2.945860381999978,35.30744837000003],[-2.9458102219999773,35.30744897900007],[-2.9458110209999404,35.307405337000034]]],[[[-2.948488604999966,35.315963527000065],[-2.948582316999932,35.31599332300004],[-2.9484602019999784,35.31599642700007],[-2.948488604999966,35.315963527000065]]],[[[-2.9486326359999566,35.31609685900003],[-2.948709396999959,35.31614089400006],[-2.948647684999969,35.31613302300008],[-2.9486326359999566,35.31609685900003]]],[[[-2.949271244999977,35.31628882900003],[-2.9492892669999264,35.31632129800005],[-2.9492547179999633,35.31632867700006],[-2.949271244999977,35.31628882900003]]],[[[-2.949340639999946,35.31632474600008],[-2.949378678999949,35.31636515800005],[-2.9493257609999546,35.31636811100003],[-2.949340639999946,35.31632474600008]]],[[[-2.9494371149999665,35.31633326200006],[-2.9494893489999754,35.31636953200007],[-2.94944148299993,35.31638637400005],[-2.9494371149999665,35.31633326200006]]],[[[-2.949448160999964,35.316438224000024],[-2.9495618379999655,35.31656009100004],[-2.9494599739999785,35.31654850700005],[-2.949448160999964,35.316438224000024]]],[[[-2.9503546099999767,35.31814379900004],[-2.950380119999977,35.31816617100003],[-2.9503445849999252,35.31816660700008],[-2.9503546099999767,35.31814379900004]]],[[[-2.9503213469999423,35.318206092000025],[-2.9503488509999443,35.318206374000056],[-2.9503342099999372,35.31822043400007],[-2.9503213469999423,35.318206092000025]]],[[[-2.950674122999942,35.31863670600006],[-2.95072010399997,35.31864538100007],[-2.950723818999961,35.31868803300006],[-2.950674122999942,35.31863670600006]]]]}},{"type":"Feature","properties":{"ClaseSuelo":"SUELO URBANIZABLE DELIMITADO O SECTORIZADO","NuclRural":"0","AreaLamber":73.34770444,"Shape_STAr":0.0000727382867992},"geometry":{"type":"MultiPolygon","coordinates":[[[[-2.949146516999974,35.28106771800003],[-2.9466647009999747,35.27993909700007],[-2.9501069709999683,35.28032672900002],[-2.9494072309999524,35.27777874100008],[-2.9514217169999597,35.276991587000055],[-2.954735588999938,35.28124500300004],[-2.949146516999974,35.28106771800003]]],[[[-2.955734948999975,35.28710129500007],[-2.9560689869999806,35.28588648200002],[-2.9577386069999534,35.28929792400004],[-2.95537528899996,35.291400355000064],[-2.955734948999975,35.28710129500007]]],[[[-2.957717210999931,35.28884250300007],[-2.9593292679999763,35.28978734400005],[-2.956195581999964,35.291467047000026],[-2.957717210999931,35.28884250300007]]],[[[-2.962651409999978,35.29114315800007],[-2.96540097999997,35.29202469400008],[-2.9618657039999334,35.29302228200004],[-2.962651409999978,35.29114315800007]]],[[[-2.959675163999975,35.29063111900007],[-2.961727651999979,35.291673908000064],[-2.9589852839999367,35.29305900400004],[-2.959675163999975,35.29063111900007]]],[[[-2.9568686489999436,35.29457752400003],[-2.9629008269999417,35.29418611300008],[-2.9592125889999465,35.29635191800003],[-2.9568686489999436,35.29457752400003]]],[[[-2.9478062259999547,35.30205688700005],[-2.9442582089999405,35.30116174800003],[-2.944215865999979,35.299105078000025],[-2.9459268739999516,35.30161689800008],[-2.9462923269999806,35.29929664600007],[-2.9473717589999637,35.299671164000074],[-2.9478062259999547,35.30205688700005]]],[[[-2.9581101519999606,35.29923830600006],[-2.961416774999975,35.29913906500008],[-2.9599664649999795,35.30230534300006],[-2.9581101519999606,35.29923830600006]]],[[[-2.953623947999972,35.30034909600005],[-2.9542249519999473,35.297039718000065],[-2.9559305329999574,35.30059756500003],[-2.9531263889999764,35.303145433000054],[-2.953623947999972,35.30034909600005]]],[[[-2.9518290609999553,35.30361082200005],[-2.949357404999944,35.30252388800005],[-2.94968154299994,35.301069168000026],[-2.9520571179999706,35.301122864000035],[-2.953043698999977,35.30351845200005],[-2.9518290609999553,35.30361082200005]]]]}},{"type":"Feature","properties":{"ClaseSuelo":"SUELO URBANO NO CONSOLIDADO","NuclRural":"0","AreaLamber":80.13911987,"Shape_STAr":0.0000794665328321},"geometry":{"type":"MultiPolygon","coordinates":[[[[-2.9358074079999597,35.292075701000044],[-2.9349573239999245,35.291318630000035],[-2.9382004129999473,35.286186703000055],[-2.941238751999947,35.28693669200004],[-2.9402914769999597,35.28968620000006],[-2.9367343509999273,35.28999090700006],[-2.9385230689999275,35.29084070000005],[-2.9366769719999297,35.29057554900004],[-2.9358074079999597,35.292075701000044]]],[[[-2.944366342999956,35.27002088000006],[-2.945715186999962,35.270785957000044],[-2.944364413999949,35.270494400000075],[-2.944366342999956,35.27002088000006]]],[[[-2.944586099999981,35.27068178500008],[-2.9446013039999457,35.270861592000074],[-2.944480184999975,35.270778147000044],[-2.944586099999981,35.27068178500008]]],[[[-2.9473593829999345,35.27024789700005],[-2.948875333999979,35.27138978900007],[-2.947380189999933,35.27105727600008],[-2.9473593829999345,35.27024789700005]]],[[[-2.9365652889999296,35.271611163000046],[-2.938038158999973,35.269283322000035],[-2.9402018989999306,35.269375780000075],[-2.9399240789999794,35.27149243700006],[-2.9365652889999296,35.271611163000046]]],[[[-2.9459540969999694,35.272212198000034],[-2.944790907999959,35.27093524900005],[-2.9458007219999445,35.27094397400003],[-2.9459540969999694,35.272212198000034]]],[[[-2.9340284459999566,35.27233847300005],[-2.9322560979999253,35.27178497500006],[-2.934720243999948,35.27094302000006],[-2.9340284459999566,35.27233847300005]]],[[[-2.9432669589999705,35.27317326600007],[-2.945890472999963,35.272352574000024],[-2.9465494159999253,35.27282589200007],[-2.9432669589999705,35.27317326600007]]],[[[-2.9480774679999513,35.273636828000065],[-2.9470792899999765,35.27301332700006],[-2.94928479999993,35.27217314500007],[-2.9480774679999513,35.273636828000065]]],[[[-2.9384371939999596,35.27469099600006],[-2.937961970999936,35.27378891500007],[-2.942819072999953,35.27286234600007],[-2.9433833579999487,35.27394594500004],[-2.9384371939999596,35.27469099600006]]],[[[-2.94922996899993,35.274759396000036],[-2.948050728999931,35.274547590000054],[-2.9497047159999283,35.27265695800003],[-2.950884311999971,35.274829014000034],[-2.94922996899993,35.274759396000036]]],[[[-2.938300811999966,35.275609942000074],[-2.9376537129999747,35.27532505100004],[-2.9358966049999253,35.27100098900007],[-2.938300811999966,35.275609942000074]]],[[[-2.949850913999967,35.27907233700006],[-2.9489319139999566,35.27815453300008],[-2.9502799049999453,35.27961604200004],[-2.949850913999967,35.27907233700006]]],[[[-2.9447457829999735,35.28223776600004],[-2.9459476389999395,35.281270251000024],[-2.94648806999993,35.28234246100004],[-2.9447457829999735,35.28223776600004]]],[[[-2.9496349289999557,35.28278203900004],[-2.9505530019999355,35.28204985700006],[-2.950632030999941,35.28283448800005],[-2.9496349289999557,35.28278203900004]]],[[[-2.932854858999974,35.28960055300007],[-2.935915503999979,35.289720516000045],[-2.935910756999931,35.28985504700006],[-2.932854858999974,35.28960055300007]]],[[[-2.9509807659999296,35.29050176000004],[-2.9533109319999653,35.290553447000036],[-2.9532736419999424,35.291140711000025],[-2.9509807659999296,35.29050176000004]]],[[[-2.9460670999999365,35.29248692600004],[-2.945640710999953,35.291659786000025],[-2.946702959999925,35.29238504600005],[-2.9460670999999365,35.29248692600004]]],[[[-2.9613648649999504,35.29223272100006],[-2.9618657039999334,35.29302228200004],[-2.9600438639999425,35.29327142900007],[-2.9613648649999504,35.29223272100006]]],[[[-2.953827960999945,35.291862915000024],[-2.95450657899994,35.29171874700006],[-2.9525947159999646,35.29326927100004],[-2.953827960999945,35.291862915000024]]],[[[-2.956685292999964,35.29334685400005],[-2.9541024439999433,35.293173145000026],[-2.954946058999951,35.29204681500005],[-2.956685292999964,35.29334685400005]]],[[[-2.9435173479999435,35.29309152500008],[-2.9443168739999805,35.29330082000007],[-2.9437486659999763,35.29405075300008],[-2.9435173479999435,35.29309152500008]]],[[[-2.9533353939999643,35.29359350400006],[-2.953159998999979,35.29463845300006],[-2.952267762999952,35.29413536100003],[-2.9533353939999643,35.29359350400006]]],[[[-2.9568622009999785,35.29450060700003],[-2.9564612159999797,35.29349395000003],[-2.9612837719999447,35.293235485000025],[-2.961429007999925,35.294266175000075],[-2.9568622009999785,35.29450060700003]]],[[[-2.9548698619999527,35.29540167000005],[-2.9534455149999417,35.29482927200007],[-2.9539230519999364,35.29354585800007],[-2.95666683099995,35.29499098100007],[-2.9548698619999527,35.29540167000005]]],[[[-2.9437555189999784,35.295257682000056],[-2.9443933829999764,35.295156355000074],[-2.9446517549999385,35.295658450000076],[-2.9437555189999784,35.295257682000056]]],[[[-2.9585697809999374,35.29689188100008],[-2.960179251999932,35.296230782000066],[-2.9606199559999595,35.29728692500004],[-2.9585697809999374,35.29689188100008]]],[[[-2.9610955539999395,35.29623929400003],[-2.9622188169999504,35.296692998000026],[-2.9622589349999657,35.29788918700007],[-2.9610955539999395,35.29623929400003]]],[[[-2.9631610389999423,35.29730479400007],[-2.964197254999931,35.297126641000034],[-2.9638223259999563,35.29835613200004],[-2.9631610389999423,35.29730479400007]]],[[[-2.962517954999953,35.299199834000035],[-2.961676405999981,35.297710350000045],[-2.963580906999937,35.29839595100003],[-2.962517954999953,35.299199834000035]]],[[[-2.9379490909999504,35.29805265500005],[-2.9399806199999716,35.29758055800005],[-2.938731433999976,35.29921570500005],[-2.9379490909999504,35.29805265500005]]],[[[-2.945015102999946,35.29949035300007],[-2.944709909999972,35.29870622200008],[-2.94540458299997,35.299363173000074],[-2.944914044999962,35.299992589000055],[-2.945015102999946,35.29949035300007]]],[[[-2.9492114679999304,35.30033722400003],[-2.9485682059999476,35.29869408300004],[-2.9503710759999535,35.300913395000066],[-2.9492114679999304,35.30033722400003]]],[[[-2.9521298059999594,35.29834818300003],[-2.9515554869999505,35.29745569600004],[-2.9538705199999526,35.29777917500007],[-2.9528763079999294,35.30270570400006],[-2.9521298059999594,35.29834818300003]]],[[[-2.9542161579999515,35.306754358000035],[-2.9543960759999663,35.30547543000006],[-2.9547990799999297,35.30672832000005],[-2.9542161579999515,35.306754358000035]]]]}},{"type":"Feature","properties":{"ClaseSuelo":"SUELO URBANIZABLE NO DELIMITADO O SECTORIZADO","NuclRural":"0","AreaLamber":17.58025732,"Shape_STAr":0.0000174308362196},"geometry":{"type":"MultiPolygon","coordinates":[[[[-2.944539529999929,35.27838416600002],[-2.9477264719999425,35.27514289000004],[-2.949324315999945,35.277664569000024],[-2.9452181399999517,35.279301056000065],[-2.944539529999929,35.27838416600002]]],[[[-2.9495525999999472,35.27758141000004],[-2.94832983699996,35.275141166000026],[-2.951023169999928,35.275057048000065],[-2.9521835879999685,35.27669387800006],[-2.9495525999999472,35.27758141000004]]]]}},{"type":"Feature","properties":{"ClaseSuelo":"SUELO URBANO","NuclRural":"0","AreaLamber":499.02560189,"Shape_STAr":0.000494843591535},"geometry":{"type":"MultiPolygon","coordinates":[[[[-2.9614464159999443,35.29920984900008],[-2.957728789999976,35.298026109000034],[-2.9557942289999346,35.30009939800004],[-2.953807954999945,35.29705256200003],[-2.9515554869999505,35.29745569600004],[-2.9527748039999437,35.30285956600005],[-2.949444795999966,35.298683966000056],[-2.9503789479999796,35.30190973100008],[-2.949357404999944,35.30252388800005],[-2.944709909999972,35.29870622200008],[-2.9440046209999764,35.30099055100004],[-2.9394981249999432,35.30204995100007],[-2.9414230559999623,35.300963531000036],[-2.938659159999929,35.30068913500003],[-2.934961944999941,35.29379028300008],[-2.93381450499993,35.29527981000007],[-2.932211643999949,35.29314706900004],[-2.9385230689999275,35.29084070000005],[-2.9367343509999273,35.28999090700006],[-2.9402914769999597,35.28968620000006],[-2.9413389839999695,35.28662627600005],[-2.939152801999967,35.28590131100003],[-2.9330686109999533,35.27495081100005],[-2.9280761409999627,35.27311072600003],[-2.9353695649999736,35.26916149400006],[-2.9363850689999254,35.270667400000036],[-2.93750898899998,35.26999783900004],[-2.9368202119999296,35.27210669200008],[-2.9399240789999794,35.27149243700006],[-2.9402018989999306,35.269375780000075],[-2.9444007209999654,35.26975182700005],[-2.9468795899999805,35.272950319000074],[-2.946173157999965,35.27119430000005],[-2.9489744409999616,35.27157077500004],[-2.947434575999978,35.27361960700006],[-2.9497275079999667,35.272463119000065],[-2.951097693999941,35.27497307600004],[-2.9475718599999254,35.275197097000046],[-2.944539529999929,35.27838416600002],[-2.9494072309999524,35.27777874100008],[-2.9501069709999683,35.28032672900002],[-2.9466647009999747,35.27993909700007],[-2.9561285029999453,35.28150345700004],[-2.955328508999969,35.29135098800003],[-2.9593292679999763,35.28978734400005],[-2.9589852839999367,35.29305900400004],[-2.9615156359999446,35.29186088900008],[-2.9600438639999425,35.29327142900007],[-2.96211911599994,35.29298707800007],[-2.962343096999973,35.29420812300003],[-2.9564612159999797,35.29349395000003],[-2.9568210239999644,35.29452134100006],[-2.954946058999951,35.29204681500005],[-2.9539366719999407,35.293517577000046],[-2.958693996999955,35.29694077800008],[-2.961086507999937,35.29620498200006],[-2.9622589349999657,35.29788918700007],[-2.963234520999947,35.29679382300003],[-2.9638138169999593,35.298372793000055],[-2.9599113959999386,35.30289774100004],[-2.9614464159999443,35.29920984900008]],[[-2.9620879909999758,35.29789190200006],[-2.9625179989999424,35.29920013200007],[-2.963580019999938,35.298486436000076],[-2.9620879909999758,35.29789190200006]],[[-2.939348387999928,35.296969612000055],[-2.937652855999943,35.29839000900006],[-2.938417430999948,35.29919588800004],[-2.939348387999928,35.296969612000055]],[[-2.9445745979999742,35.295502439000074],[-2.943922847999943,35.29500250700005],[-2.9437555189999784,35.295257682000056],[-2.9445745979999742,35.295502439000074]],[[-2.953495592999957,35.294881572000065],[-2.95666683099995,35.29499098100007],[-2.9547761799999535,35.29350028300007],[-2.953495592999957,35.294881572000065]],[[-2.9536841199999344,35.29359999500008],[-2.9521870369999306,35.29385357500007],[-2.9530199629999743,35.29468736100006],[-2.9536841199999344,35.29359999500008]],[[-2.9437486659999763,35.29405075300008],[-2.9443168739999805,35.29330082000007],[-2.9436266569999248,35.29294991900008],[-2.9430606109999644,35.29370158200004],[-2.9437486659999763,35.29405075300008]],[[-2.951850100999934,35.29366010700005],[-2.95450657899994,35.29171874700006],[-2.9468739229999414,35.29033226400003],[-2.951850100999934,35.29366010700005]],[[-2.9461622479999505,35.29163278800007],[-2.945599209999955,35.29171882900005],[-2.9461593349999475,35.29271113000004],[-2.9461622479999505,35.29163278800007]],[[-2.950935602999948,35.29080318000007],[-2.9525018389999786,35.29147854800004],[-2.9533109319999653,35.290553447000036],[-2.950935602999948,35.29080318000007]],[[-2.9462854279999533,35.28896326800003],[-2.9455005269999788,35.28864844800006],[-2.9472564189999275,35.290135356000064],[-2.9462854279999533,35.28896326800003]],[[-2.9453010339999537,35.28848429400006],[-2.943872502999966,35.28731548600007],[-2.9422815979999655,35.28736929000007],[-2.9453010339999537,35.28848429400006]],[[-2.94235724899994,35.28707338800007],[-2.941887562999966,35.286818063000055],[-2.941680991999931,35.28712464100005],[-2.94235724899994,35.28707338800007]],[[-2.941683449999971,35.28691643900004],[-2.9414761509999607,35.28667423200005],[-2.9413330469999437,35.286960588000056],[-2.941683449999971,35.28691643900004]],[[-2.9502770329999635,35.282928895000055],[-2.9499339379999583,35.28190846800004],[-2.9496349289999557,35.28278203900004],[-2.9502770329999635,35.282928895000055]],[[-2.945344304999935,35.28235274300005],[-2.94648806999993,35.28234246100004],[-2.9459476389999395,35.281270251000024],[-2.945344304999935,35.28235274300005]],[[-2.9386718699999506,35.27540984400008],[-2.9358966049999253,35.27100098900007],[-2.9376537129999747,35.27532505100004],[-2.9386718699999506,35.27540984400008]],[[-2.9347384019999367,35.27097710500004],[-2.9322560979999253,35.27178497500006],[-2.934705683999937,35.27264534700004],[-2.9347384019999367,35.27097710500004]],[[-2.9430884129999413,35.27283188700005],[-2.943503924999959,35.273626302000025],[-2.9465494159999253,35.27282589200007],[-2.9430884129999413,35.27283188700005]],[[-2.942840308999962,35.27290327500003],[-2.937961970999936,35.27378891500007],[-2.942857996999976,35.27412881600003],[-2.942840308999962,35.27290327500003]],[[-2.948485742999935,35.27413474200006],[-2.9508839919999446,35.27483024900005],[-2.9497047159999283,35.27265695800003],[-2.948485742999935,35.27413474200006]],[[-2.944660504999945,35.27084101500003],[-2.94465761999993,35.27070088000005],[-2.944492817999958,35.270729533000065],[-2.944660504999945,35.27084101500003]]],[[[-2.94499163699993,35.26948300200007],[-2.947347734999937,35.26979509300003],[-2.9473776479999287,35.27095836700005],[-2.94499163699993,35.26948300200007]]],[[[-2.935915503999979,35.289720516000045],[-2.936416013999974,35.28956845600004],[-2.9363986959999693,35.29005665500006],[-2.935915503999979,35.289720516000045]]],[[[-2.9547937839999463,35.306618230000026],[-2.9543960759999663,35.30547543000006],[-2.9555550259999563,35.30542323000003],[-2.9547937839999463,35.306618230000026]]]]}}]}