{"type":"FeatureCollection","features":[{"type":"Feature","properties":{},"geometry":{"type":"MultiPolygon","coordinates":[[[[-0.129617744,38.501125699],[-0.129674657,38.501136105],[-0.129731927,38.50113751],[-0.12978884000000002,38.501147916],[-0.129845752,38.501158322],[-0.129914119,38.501169009],[-0.129982486,38.501179696],[-0.13003904100000002,38.501199102],[-0.130095596,38.501218509000005],[-0.13015179300000002,38.501246916],[-0.130196537,38.501275043],[-0.13024128000000001,38.501303169],[-0.130286381,38.501322295],[-0.130343294,38.5013327],[-0.130412376,38.501325385],[-0.130469646,38.50132679],[-0.130527274,38.501319194000004],[-0.130607453,38.50132116],[-0.130687631,38.501323127],[-0.13076781,38.501325093000005],[-0.13084763100000002,38.50133606],[-0.13090490100000002,38.501337465],[-0.130961814,38.501347870000004],[-0.131018727,38.501358275],[-0.13107564000000002,38.501368680000006],[-0.131132196,38.501388087],[-0.131189109,38.501398492],[-0.131245664,38.501417898],[-0.13130222,38.501437304],[-0.131358418,38.501465711],[-0.131402804,38.501502838],[-0.131458288,38.501549246],[-0.131514129,38.501586654],[-0.13155887300000002,38.501614780000004],[-0.13161471400000002,38.501652188],[-0.13167127,38.501671593000005],[-0.13172782600000002,38.501690999000004],[-0.13178509600000002,38.501692403],[-0.13184236700000002,38.501693807],[-0.13189999500000002,38.50168621],[-0.131969435,38.501669893],[-0.13202742,38.501653296],[-0.13208540600000002,38.501636698000006],[-0.132143391,38.501620100000004],[-0.132201377,38.501603502],[-0.132258647,38.501604906000004],[-0.132327372,38.50160659],[-0.13238428600000002,38.501616995],[-0.132441199,38.501627399],[-0.132521378,38.501629365],[-0.1326012,38.501640331000004],[-0.132680664,38.501660297],[-0.13273722000000002,38.501679703],[-0.13275941400000002,38.501698266000005],[-0.13278125100000002,38.501725830000005],[-0.13280344400000002,38.501744393],[-0.132813827,38.501771677],[-0.132800943,38.501807400000004],[-0.132776249,38.501851843000004],[-0.1327401,38.501896005],[-0.132727216,38.501931728],[-0.132760507,38.501959573],[-0.132816706,38.501987979],[-0.13287326300000002,38.502007384],[-0.132918008,38.50203551],[-0.132951299,38.502063354],[-0.13297313500000002,38.502090919000004],[-0.13299497200000002,38.502118483000004],[-0.133016451,38.502155048000006],[-0.133002854,38.502208772],[-0.132966347,38.502261935],[-0.132918387,38.502314818],[-0.132859329,38.502358419000004],[-0.13281172500000002,38.502402301000004],[-0.132764122,38.502446182],[-0.132716876,38.502481063000005],[-0.132657818,38.502524664],[-0.132610214,38.502568545],[-0.132562968,38.502603426],[-0.132503909,38.502647027],[-0.132456663,38.502681907],[-0.132409416,38.502716788],[-0.132362527,38.502742668],[-0.132315638,38.502768547],[-0.13226874800000002,38.502794427000005],[-0.132210405,38.502820026],[-0.13215206100000002,38.502845624],[-0.132105529,38.502862503],[-0.132047185,38.502888102],[-0.131988841,38.5029137],[-0.131930497,38.502939299000005],[-0.13188325,38.50297418],[-0.131836003,38.503009060000004],[-0.13181130700000002,38.503053503000004],[-0.131797708,38.503107227],[-0.131784109,38.503160952],[-0.13175941300000002,38.503205394000005],[-0.131723263,38.503249556],[-0.131687828,38.503275717],[-0.13164058,38.503310597],[-0.13159404800000002,38.503327475],[-0.131559327,38.503335634],[-0.131513509,38.50333451],[-0.131467692,38.503333387000005],[-0.131444783,38.503332825],[-0.13143189900000002,38.503368548000005],[-0.131441566,38.503413833],[-0.131461972,38.503477401000005],[-0.131494191,38.503532249],[-0.13151567,38.503568814000005],[-0.131548246,38.503614661],[-0.131569725,38.503651226],[-0.131590847,38.503696792],[-0.13160122900000001,38.503724076000005],[-0.131600156,38.503751078],[-0.131610539,38.503778362000006],[-0.13160982400000001,38.503796363],[-0.131573315,38.503849526],[-0.131526068,38.503884406000005],[-0.131467008,38.503928007],[-0.131396851,38.503962325],[-0.131361057,38.503997486],[-0.131313809,38.504032366000004],[-0.131266919,38.504058245],[-0.131220386,38.504075123],[-0.131163471,38.504064718],[-0.131107271,38.504036311],[-0.13105107100000002,38.504007904000005],[-0.13099522800000002,38.503970496],[-0.13093938600000002,38.503933088000004],[-0.130894641,38.503904962],[-0.130838441,38.503876555000005],[-0.13078224100000002,38.503848147],[-0.13071422900000002,38.50382846],[-0.13064586,38.503817774000005],[-0.13057749100000002,38.503807087000006],[-0.130509122,38.503796401],[-0.13044039500000001,38.503794715000005],[-0.130372026,38.503784028000005],[-0.130303299,38.503782343000005],[-0.13023493,38.503771656000005],[-0.130178015,38.503761250000004],[-0.13012110000000002,38.503750844],[-0.130053089,38.503731157000004],[-0.13000798600000002,38.503712031],[-0.129963599,38.503674904],[-0.129919212,38.503637776000005],[-0.12988627900000002,38.503600930000005],[-0.12985370400000001,38.503555082000005],[-0.129809675,38.503508954000004],[-0.129765646,38.503462826],[-0.129721259,38.503425698],[-0.12967723,38.50337957],[-0.129632843,38.503342442000005],[-0.129588099,38.503314315000004],[-0.129543712,38.503277188000006],[-0.129499325,38.50324006],[-0.129454581,38.503211933],[-0.129421649,38.503175087],[-0.12938871600000001,38.503138240000006],[-0.12934433,38.503101113],[-0.12931139800000002,38.503064266],[-0.12926736900000002,38.503018137000005],[-0.129234437,38.502981291000005],[-0.129201863,38.502935443000005],[-0.12918074300000001,38.502889877],[-0.129148169,38.502844029],[-0.12912669100000002,38.502807464],[-0.129093401,38.502779618000005],[-0.129025033,38.502768931000006],[-0.128967404,38.502776526000005],[-0.128897963,38.502792841],[-0.128840692,38.502791435],[-0.12879594900000002,38.502763308000006],[-0.128751563,38.50272618],[-0.128718989,38.502680332000004],[-0.12868605800000002,38.502643485],[-0.128676035,38.502607201000004],[-0.12866565400000002,38.502579917000006],[-0.12864381900000002,38.502552352],[-0.128621984,38.502524787000006],[-0.128610888,38.502515505000005],[-0.12859979200000002,38.502506223000005],[-0.128588695,38.502496941000004],[-0.12857795700000002,38.502478658],[-0.128556122,38.502451093000005],[-0.12854574100000002,38.50242381],[-0.12853571800000002,38.502387525],[-0.12853715000000002,38.502351522000005],[-0.128527484,38.502306236],[-0.128517819,38.502260951000004],[-0.128508154,38.502215665],[-0.12849848900000002,38.50217038],[-0.128500636,38.502116375],[-0.128502783,38.502062369],[-0.128516384,38.502008645000004],[-0.128518173,38.501963641],[-0.12853213200000002,38.501900916000004],[-0.128546091,38.501838192],[-0.128571503,38.501775748],[-0.128585462,38.501713023],[-0.128610159,38.501668581000004],[-0.128623402,38.501623858],[-0.12864809900000002,38.501579416000006],[-0.128672796,38.501534974],[-0.128697493,38.501490532000005],[-0.12873400200000001,38.501437370000005],[-0.12878160700000002,38.501393490000005],[-0.128817758,38.501349330000004],[-0.128865362,38.501305450000004],[-0.128924063,38.501270852000005],[-0.12897131,38.501235973],[-0.129030011,38.501201375],[-0.129099451,38.501185060000005],[-0.129168891,38.501168744000005],[-0.129237973,38.50116143],[-0.129307412,38.501145114],[-0.129387948,38.501138081],[-0.129468484,38.501131047],[-0.12953756600000002,38.501123732],[-0.129617744,38.501125699]]],[[[-0.072756534,38.536340155000005],[-0.07280090900000001,38.536377304000005],[-0.07284528500000001,38.536414452],[-0.072889295,38.536460601],[-0.07293440000000001,38.536479748000005],[-0.07297914100000001,38.536507896],[-0.073024246,38.536527044],[-0.073069717,38.536537191],[-0.07313847100000001,38.536538911],[-0.073207225,38.536540632000005],[-0.07327634400000001,38.536533352],[-0.07334473300000001,38.536544072000005],[-0.073366921,38.536562646],[-0.073400568,38.536581507],[-0.073422756,38.536600081],[-0.073444943,38.536618656],[-0.073454212,38.536672944],[-0.073440562,38.536726659],[-0.073438736,38.536771661],[-0.07341399300000001,38.536816089000006],[-0.07336706100000001,38.536841943],[-0.073308671,38.53686751],[-0.073239186,38.536883791],[-0.073180795,38.536909358],[-0.073133133,38.536953213000004],[-0.073096565,38.537006355],[-0.073059997,38.537059496000005],[-0.073012335,38.537103351],[-0.072953578,38.537137919],[-0.07288372800000001,38.537163199000005],[-0.072814243,38.537179479],[-0.072744758,38.537195759],[-0.072686732,38.537212326],[-0.072617612,38.537219606],[-0.07255958600000001,38.537236172],[-0.07250192600000001,38.537243739000004],[-0.07244426500000001,38.537251305000005],[-0.07237478,38.537267585],[-0.072317119,38.537275151],[-0.072259458,38.537282717000004],[-0.072190338,38.537289997],[-0.072121218,38.537297276000004],[-0.072063557,38.537304842000005],[-0.07199443700000001,38.537312122],[-0.071925683,38.537310401],[-0.071856563,38.53731768],[-0.07178780800000001,38.537315959000004],[-0.071719419,38.537305237000005],[-0.071662854,38.537285802],[-0.07161811300000001,38.537257654],[-0.07157300800000001,38.537238506],[-0.071551551,38.537201931000006],[-0.071564471,38.537166216],[-0.07158885100000001,38.537130789],[-0.071636514,38.537086935000005],[-0.071683812,38.537052081000006],[-0.07169563600000001,38.537043367],[-0.07170746,38.537034654],[-0.071765852,38.537009087],[-0.071813149,38.536974234000006],[-0.07187154100000001,38.536948667000004],[-0.07194175600000001,38.536914387],[-0.071953215,38.536914674],[-0.07196504000000001,38.536905960000006],[-0.07202306500000001,38.536889394],[-0.072081091,38.536872827],[-0.07215057600000001,38.536856548],[-0.072220426,38.536831268],[-0.072266993,38.536814414000006],[-0.07230246600000001,38.536788274],[-0.072337573,38.536771134000006],[-0.07237304600000001,38.536744993],[-0.072386697,38.536691278],[-0.072388888,38.536637276],[-0.072391445,38.536574274],[-0.072405095,38.536520559],[-0.07243020500000001,38.536467130000005],[-0.072454584,38.536431703000005],[-0.072502246,38.536387848000004],[-0.072537718,38.536361708],[-0.07258465,38.536335854],[-0.072619392,38.536327714],[-0.072665593,38.536319861],[-0.07271142900000001,38.536321008],[-0.072756534,38.536340155000005]]],[[[-0.176494603,38.603805052000006],[-0.175564075,38.60323299],[-0.174272699,38.602201721],[-0.17311900400000002,38.601173768],[-0.171521785,38.599162041],[-0.167698709,38.593907008],[-0.164941953,38.590155284000005],[-0.160172809,38.586210480000005],[-0.155093971,38.583726508000005],[-0.154350279,38.583375056],[-0.150101526,38.581388577000006],[-0.14096540000000002,38.576750863],[-0.140327546,38.576338846000006],[-0.134728278,38.571390689000005],[-0.13382965700000002,38.570611867000004],[-0.1329267,38.56821122],[-0.132622137,38.567212705],[-0.131953613,38.567286405000004],[-0.128552935,38.567671437],[-0.12770741700000002,38.567866894000005],[-0.12685723200000001,38.568179354],[-0.125731529,38.568494044000005],[-0.120969719,38.568764279],[-0.119643013,38.568938816],[-0.118435724,38.568422551000005],[-0.11765901200000001,38.568331327],[-0.116599955,38.568413325],[-0.115767004,38.568293673],[-0.11500890500000001,38.568311005000005],[-0.11469612100000001,38.568384371],[-0.11310342400000001,38.569182933],[-0.11273475300000001,38.569218876],[-0.112141477,38.569132146],[-0.11124831900000001,38.56908305],[-0.110050228,38.569197591000005],[-0.10888932700000001,38.569529266],[-0.108209573,38.569881842],[-0.10733563300000001,38.570211591],[-0.105899189,38.570545428],[-0.105692461,38.570549319],[-0.103932565,38.570649886000005],[-0.10282688100000001,38.570748622],[-0.10223783500000001,38.570842136],[-0.101348168,38.57099126],[-0.10059100700000001,38.571269796],[-0.10007605100000001,38.571518298],[-0.099622763,38.571660214000005],[-0.097622704,38.57116911],[-0.096656536,38.570937900000004],[-0.094436299,38.570216036000005],[-0.09412182200000001,38.570046048],[-0.093666443,38.569386045],[-0.091744107,38.567824643],[-0.090265516,38.566643644],[-0.08988918600000001,38.566300926000004],[-0.08859262300000001,38.565160475],[-0.08698167000000001,38.563850005],[-0.084710645,38.561838333000004],[-0.081774568,38.559251428],[-0.081677233,38.559104846000004],[-0.078813899,38.55529439],[-0.069998139,38.548334744],[-0.069033724,38.547788033],[-0.068297074,38.547283062000005],[-0.066933646,38.546546571],[-0.06628476200000001,38.546169763],[-0.066325035,38.546125455],[-0.06640818700000001,38.546055465],[-0.06649097300000001,38.545994475],[-0.066596313,38.545943061],[-0.066722744,38.545937222],[-0.066837715,38.545931096000004],[-0.066919768,38.545888106],[-0.066990361,38.545844829],[-0.067128618,38.545830277],[-0.06725578,38.545806437],[-0.067373313,38.545737309],[-0.067457561,38.545640317],[-0.067496334,38.545533176],[-0.067523646,38.545425748],[-0.067573147,38.545336894],[-0.067645203,38.545257616],[-0.067728719,38.545178624],[-0.0678126,38.545090633],[-0.067885021,38.545002354000005],[-0.06793452200000001,38.5449135],[-0.067996214,38.544806934],[-0.068000239,38.544707931000005],[-0.067922944,38.544633918],[-0.067799443,38.544567755],[-0.06766375000000001,38.544519307],[-0.06755171,38.544453432000005],[-0.067531351,38.544389855000006],[-0.067533547,38.544335853],[-0.067617062,38.544256862000005],[-0.067756413,38.544215309],[-0.067882841,38.544209468000005],[-0.068008171,38.544230629000005],[-0.068144596,38.544261077],[-0.068281752,38.544273524000005],[-0.06836270500000001,38.544257535],[-0.068432929,38.544223257000006],[-0.068459874,38.544124828],[-0.068442075,38.54399825],[-0.068457925,38.543890534],[-0.06849633000000001,38.543792393000004],[-0.06860239700000001,38.543722975],[-0.068731019,38.543663133],[-0.068860006,38.54359429],[-0.06897789900000001,38.543516159],[-0.06903885700000001,38.543427592],[-0.06908908600000001,38.543320737],[-0.069093109,38.543221734],[-0.06910822700000001,38.543132018],[-0.06918101,38.543034738],[-0.069287807,38.54294732],[-0.069405332,38.542878189],[-0.06953358600000001,38.542827345],[-0.069694026,38.542831365000005],[-0.069832277,38.542816810000005],[-0.069915056,38.542755817],[-0.06996345500000001,38.542693963000005],[-0.069909812,38.542602525],[-0.06985616800000001,38.542511087],[-0.069916027,38.542449520000005],[-0.070009535,38.542406815],[-0.070135959,38.542400973],[-0.070273478,38.542404417],[-0.070401,38.542371573000004],[-0.070540712,38.542321016],[-0.070690787,38.542297746],[-0.070840862,38.542274476],[-0.070980574,38.542223918000005],[-0.071108825,38.542173073],[-0.07123671100000001,38.542131228],[-0.071353503,38.542080095],[-0.071447009,38.542037389],[-0.07154088,38.541985683],[-0.071645846,38.541943264000004],[-0.07175081200000001,38.541900844000004],[-0.071856873,38.541831424],[-0.071962935,38.541762003],[-0.072091916,38.541693156],[-0.07223199100000001,38.541633596000004],[-0.072382795,38.541592324],[-0.072532868,38.541569051],[-0.07264783100000001,38.541562919],[-0.07276316000000001,38.541547787],[-0.072902138,38.541515227000005],[-0.07302929200000001,38.541491380000004],[-0.07316863500000001,38.541449820000004],[-0.073296884,38.541398972],[-0.073380024,38.541328977],[-0.07345206900000001,38.541249695000005],[-0.073513385,38.541152125],[-0.07356324,38.541054269],[-0.07363638,38.540947986],[-0.07372098,38.540841990000004],[-0.07378156500000001,38.540762422],[-0.073853243,38.540692140000004],[-0.073926383,38.540585857],[-0.074010981,38.540479860000005],[-0.074107039,38.540374151],[-0.074214192,38.540277728],[-0.074274775,38.540198159],[-0.074335724,38.540109589000004],[-0.074397402,38.540003019000004],[-0.074447621,38.539896162000005],[-0.074463096,38.539797445000005],[-0.07447857000000001,38.539698729],[-0.074471856,38.539581438],[-0.07445404800000001,38.53945486],[-0.07443514400000001,38.539355283],[-0.0744277,38.539255992],[-0.074455729,38.539130561],[-0.074506312,38.539014704],[-0.074579083,38.538917420000004],[-0.07466331400000001,38.538820424],[-0.07474681400000001,38.538741428],[-0.07482995,38.538671432],[-0.074925639,38.538574722],[-0.07502096300000001,38.538487012000004],[-0.07509336900000001,38.538398728000004],[-0.07515394900000001,38.538319159000004],[-0.07521526,38.538221588],[-0.075287665,38.538133305],[-0.07534861000000001,38.538044735],[-0.07542065,38.537965451000005],[-0.075492324,38.537895168000006],[-0.075575458,38.537825172000005],[-0.07568187400000001,38.537746748],[-0.07579975,38.537668611],[-0.07590580100000001,38.537599188],[-0.076011853,38.537529764000006],[-0.076152281,38.5374612],[-0.07629198000000001,38.537410636000004],[-0.07642021900000001,38.537359786],[-0.076559553,38.537318222],[-0.076698157,38.537294659000004],[-0.076836761,38.537271096000005],[-0.07696317600000001,38.537265247],[-0.07707849700000001,38.537250111000006],[-0.07722783100000001,38.537244834],[-0.077365705,38.537239271000004],[-0.077503215,38.537242708],[-0.077652184,38.537246431],[-0.077823707,38.537259728],[-0.07798377100000001,38.537272737],[-0.078109092,38.537293888],[-0.078234414,38.537315038],[-0.078370831,38.537345476000006],[-0.078507612,38.537366912],[-0.078644029,38.537397349],[-0.07878081,38.537418785],[-0.07891832,38.537422221],[-0.079044372,38.53742537],[-0.079170787,38.537419518],[-0.079297932,38.537395666],[-0.079448723,38.537354385],[-0.079577325,38.537294531],[-0.07969519600000001,38.537216389],[-0.079791241,38.537110674000004],[-0.079840357,38.537030816000005],[-0.079878377,38.536941670000004],[-0.07992895,38.53682581],[-0.080002076,38.536719523],[-0.080086297,38.536622522],[-0.080158694,38.536534235000005],[-0.080162701,38.536435231000006],[-0.080132695,38.536326368000005],[-0.080091595,38.536208218000006],[-0.08007304800000001,38.536099641],[-0.080133622,38.536020068],[-0.08022857200000001,38.535941354],[-0.08035753500000001,38.535872499],[-0.080497228,38.535821930000004],[-0.080614002,38.535770788],[-0.080730777,38.535719647],[-0.080802444,38.53564936],[-0.08086338100000001,38.535560787],[-0.08090067100000001,38.535489642],[-0.080937961,38.535418497],[-0.08105582700000001,38.535340354000006],[-0.08119551900000001,38.535289784],[-0.0813112,38.535265644],[-0.081426881,38.535241503],[-0.08155438500000001,38.535208647000005],[-0.081681525,38.535184792],[-0.081831582,38.535161508],[-0.08198200400000001,38.535129224],[-0.082109507,38.535096368000005],[-0.08222591600000001,38.535054226],[-0.08235341900000001,38.535021369],[-0.082481287,38.534979512],[-0.082620977,38.534928941000004],[-0.08276066600000001,38.534878369000005],[-0.082875982,38.534863227],[-0.083003121,38.53483937],[-0.08313026000000001,38.534815513000005],[-0.083258127,38.534773656000006],[-0.083374534,38.534731512],[-0.08347984600000001,38.534680082],[-0.08358588600000001,38.534610651],[-0.083669372,38.534531647],[-0.083752858,38.534452644000005],[-0.08383670700000001,38.53436464],[-0.083943474,38.534277208],[-0.084050604,38.534180775],[-0.08416810100000001,38.534111629],[-0.08427414000000001,38.534042198],[-0.084414554,38.533973623],[-0.08454351,38.533904762000006],[-0.08466064200000001,38.533844616],[-0.084777775,38.53378447],[-0.08488272100000001,38.533742039],[-0.08499912600000001,38.533699894],[-0.08513917600000001,38.533640318],[-0.085267402,38.533589458],[-0.085383807,38.533547312],[-0.08548838900000001,38.533513881000005],[-0.085604793,38.533471734],[-0.085732656,38.533429874],[-0.08586051900000001,38.533388013],[-0.085988381,38.533346152],[-0.08611588,38.533313291],[-0.08622046200000001,38.533279859000004],[-0.086337592,38.533219711],[-0.086432532,38.533140992],[-0.08649382300000001,38.533043414000005],[-0.08653256000000001,38.532936265000004],[-0.08655947500000001,38.532837832000006],[-0.08660930600000001,38.532739969000005],[-0.08671606700000001,38.532652534],[-0.08684501800000001,38.53258367],[-0.08697396900000001,38.532514807000005],[-0.08709146100000001,38.532445658],[-0.087198221,38.532358222],[-0.087293885,38.532261500000004],[-0.08740028100000001,38.532183065000005],[-0.087495582,38.532095344000005],[-0.087545412,38.53199748],[-0.087595242,38.531899617],[-0.08767835700000001,38.531829611],[-0.08776147200000001,38.531759605000005],[-0.08783312800000001,38.531689314000005],[-0.087905148,38.531610022],[-0.087966072,38.531521444],[-0.088015538,38.531432581000004],[-0.088053908,38.531334432],[-0.08809227900000001,38.531236283000005],[-0.088187941,38.53113956],[-0.08829506000000001,38.531043123],[-0.08835598400000001,38.530954545],[-0.08839399,38.530865396],[-0.08843236,38.530767247],[-0.08843671800000001,38.530659242000006],[-0.088417433,38.530568666],[-0.08839851200000001,38.530469091],[-0.088436518,38.530379942],[-0.088485982,38.530291078000005],[-0.088558363,38.530202785],[-0.08863074300000001,38.530114493],[-0.08872676600000001,38.530008769000005],[-0.088834246,38.529903331],[-0.08891808400000001,38.529815323],[-0.0889901,38.52973603],[-0.089073938,38.529648022],[-0.089157412,38.529569014],[-0.08924016,38.529508008],[-0.089322907,38.529447001],[-0.08940638100000001,38.529367993],[-0.08947803300000001,38.5292977],[-0.089561869,38.529209692],[-0.08965680000000001,38.529130969],[-0.08973991,38.529060961],[-0.08981119900000001,38.528999669],[-0.089918313,38.528903230000004],[-0.090025427,38.528806791],[-0.09012035700000001,38.528728067],[-0.09022674500000001,38.528649629],[-0.09030985400000001,38.528579621000006],[-0.09039296200000001,38.528509613000004],[-0.09051117,38.528422459000005],[-0.09062901500000001,38.528344305000005],[-0.09072358100000001,38.528274582],[-0.090829242,38.528214144],[-0.09094708600000001,38.52813599],[-0.091064929,38.528057835000006],[-0.091205326,38.527989252000005],[-0.091345722,38.527920668],[-0.09145101900000001,38.52786923],[-0.09155595300000001,38.527826792],[-0.09166125,38.527775354],[-0.091766183,38.527732916000005],[-0.091871117,38.527690478000004],[-0.09197605,38.52764804],[-0.092103899,38.527606171],[-0.09223138600000001,38.527573303000004],[-0.09235887200000001,38.527540435000006],[-0.09248563200000001,38.527525568],[-0.09261058000000001,38.527555703000004],[-0.09273552800000001,38.527585838],[-0.09282646500000001,38.527606118],[-0.09292886,38.527626682000005],[-0.09302016,38.527637961],[-0.093169836,38.527623663],[-0.093297322,38.527590794000005],[-0.093391159,38.527539069],[-0.093416975,38.527467635],[-0.09340877900000001,38.527386345000004],[-0.09339949700000001,38.527332057],[-0.09338985200000001,38.52728677],[-0.09340239700000001,38.527260053],[-0.093414942,38.527233337000006],[-0.09344967800000001,38.52722519],[-0.09349587100000001,38.527217329],[-0.09354134,38.527227469],[-0.093598266,38.527237893000006],[-0.093654467,38.527266318],[-0.09371066800000001,38.527294744],[-0.09373249600000001,38.527322315],[-0.093765782,38.527350171],[-0.09385454500000001,38.527424453],[-0.09394403200000001,38.527480734],[-0.09405933500000001,38.527465580000005],[-0.094175725,38.527423425],[-0.09427028600000001,38.527353698],[-0.094331199,38.527265116],[-0.09434773,38.527139394],[-0.09434170800000001,38.527004101],[-0.094357152,38.52690538],[-0.09439514900000001,38.526816229000005],[-0.094478251,38.526746218],[-0.094572087,38.526694492000004],[-0.094699933,38.526652621000004],[-0.09482741600000001,38.52661975],[-0.09496527,38.526614165000005],[-0.09508129600000001,38.526581009000004],[-0.09511784300000001,38.52652786],[-0.095142932,38.526474426],[-0.095135459,38.526375135],[-0.09512762400000001,38.526284845],[-0.095164895,38.526213695],[-0.09521326100000001,38.52615183],[-0.09530745800000001,38.526091103000006],[-0.095401654,38.526030376],[-0.09549621200000001,38.525960648],[-0.09559113300000001,38.52588192],[-0.095686777,38.52578519],[-0.095782422,38.525688461],[-0.09585478900000001,38.525600163],[-0.095927155,38.525511864],[-0.09595369200000001,38.525422428000006],[-0.09596913300000001,38.525323707000005],[-0.095938382,38.525232848],[-0.09590799400000001,38.525132988],[-0.095911616,38.525042983000006],[-0.09592705700000001,38.524944262000005],[-0.095965413,38.524846109],[-0.096014864,38.524757242],[-0.09612087700000001,38.524687798],[-0.096226528,38.524627355],[-0.09630962700000001,38.524557342],[-0.09638163000000001,38.524478044000006],[-0.09641926,38.524397893],[-0.096445796,38.524308456],[-0.096496332,38.524192587],[-0.096569421,38.524086287],[-0.096664699,38.523998557000006],[-0.09679362600000001,38.523929682],[-0.096932561,38.523897093],[-0.09707149500000001,38.523864503000006],[-0.09718824000000001,38.523813344000004],[-0.09729388900000001,38.523752900000005],[-0.097398813,38.523710456],[-0.09749300500000001,38.523649727000006],[-0.097519539,38.52356029],[-0.09755753,38.523471138000005],[-0.097695378,38.523465549],[-0.09785396900000001,38.523514533000004],[-0.09796745500000001,38.523544378000004],[-0.09806912200000001,38.523582939],[-0.09816970400000001,38.523648501000004],[-0.098258829,38.52371378],[-0.09833504900000001,38.523814776],[-0.09838835500000001,38.523915203],[-0.098406565,38.524032779],[-0.09837930900000001,38.524140217],[-0.09834131800000001,38.52422937],[-0.098280775,38.524308954000006],[-0.09821950800000001,38.524406538],[-0.098193336,38.524486975],[-0.09829572900000001,38.524507534],[-0.098445036,38.52450223],[-0.09859398200000001,38.524505925],[-0.09873074600000001,38.524527337],[-0.098842787,38.524593184000004],[-0.09891973300000001,38.524676178],[-0.09891611500000001,38.524766184],[-0.09888922,38.524864622],[-0.098805762,38.524943637],[-0.098733761,38.525022937],[-0.098752696,38.525122511],[-0.09881746100000001,38.525223223000005],[-0.09888258800000001,38.525314934],[-0.098959534,38.525397929],[-0.09906084300000001,38.525445489],[-0.099173971,38.525484334000005],[-0.099287099,38.525523178],[-0.099412046,38.525553306],[-0.099538079,38.525556432],[-0.09967593100000001,38.525550841000005],[-0.099790506,38.525553683000005],[-0.09990435800000001,38.525574526],[-0.100029668,38.525595652],[-0.100154616,38.525625779],[-0.10029102200000001,38.52565619],[-0.10040415100000001,38.525695033000005],[-0.10046928000000001,38.525786744],[-0.10052259000000001,38.525887170000004],[-0.10057734700000001,38.525951595],[-0.10063282700000001,38.525998018],[-0.100735584,38.526009575],[-0.100838702,38.526012132000005],[-0.10088164000000001,38.526085273],[-0.10091348200000001,38.526149129000004],[-0.101028059,38.526151969000004],[-0.101166273,38.526137376],[-0.10128121100000001,38.526131216],[-0.10140724500000001,38.526134340000006],[-0.101544375,38.526146748],[-0.10166968600000001,38.526167873000006],[-0.101829371,38.52618985],[-0.101977597,38.526211542000006],[-0.10209109000000001,38.526241383000006],[-0.102204582,38.526271224000006],[-0.102329894,38.526292349],[-0.10244302500000001,38.52633119],[-0.10253287900000001,38.526378464000004],[-0.10263419200000001,38.526426022],[-0.10275842,38.526474147],[-0.102871552,38.526512988],[-0.10299614100000001,38.526552113],[-0.10310891200000001,38.526599955],[-0.103198045,38.526665229],[-0.10328717800000001,38.526730504],[-0.10338957500000001,38.52675106],[-0.10349269500000001,38.526753614],[-0.10364273,38.526730301],[-0.10375766800000001,38.526724138000006],[-0.10381242900000001,38.526788561000004],[-0.10383173200000001,38.526879135],[-0.103815579,38.526995859],[-0.10375395500000001,38.527102447000004],[-0.10364830600000001,38.527162898],[-0.103565212,38.527232916],[-0.103539767,38.527295353],[-0.103526142,38.527349072],[-0.103603818,38.527414063],[-0.10372877100000001,38.527444187],[-0.10379787900000001,38.527436889],[-0.10386734900000001,38.527420590000006],[-0.103875195,38.52751088],[-0.103835403,38.527645037],[-0.10383070700000001,38.527762045],[-0.10382601100000001,38.527879053],[-0.10385641200000001,38.527978911000005],[-0.103910451,38.528061335000004],[-0.10397811500000001,38.52809004],[-0.10404650200000001,38.528100743],[-0.10416361,38.528040576],[-0.104270704,38.527944123000005],[-0.10436453500000001,38.527892389],[-0.104469823,38.527840939],[-0.104587652,38.52776277],[-0.104705482,38.527684602],[-0.104777118,38.527614299],[-0.104837657,38.527534712000005],[-0.10489819700000001,38.527455125],[-0.104970193,38.527375821],[-0.10505437000000001,38.527278800000005],[-0.105149643,38.527191063000004],[-0.10523309800000001,38.527112043],[-0.10531655200000001,38.527033023],[-0.105411102,38.526963287],[-0.10551602800000001,38.526920836],[-0.10560769,38.526923105],[-0.10568717300000001,38.526943091],[-0.105729394,38.527034232000005],[-0.105724702,38.52715124],[-0.10570963400000001,38.527240962],[-0.105717482,38.527331252],[-0.10579371700000001,38.527432244],[-0.10589395,38.527506801],[-0.10598344800000001,38.527563073],[-0.10609694400000001,38.527592911],[-0.10622225900000001,38.527614031000006],[-0.10633719900000001,38.527607865],[-0.106453222,38.527574698],[-0.106569245,38.527541531000004],[-0.106673448,38.52751708],[-0.10675401500000001,38.527510064000005],[-0.10677404400000001,38.527582636000005],[-0.10676935300000001,38.527699644],[-0.10676466200000001,38.527816652000006],[-0.10673705500000001,38.527933094000005],[-0.106698711,38.528031250000005],[-0.10664854900000001,38.528138123000005],[-0.10660984400000001,38.52824528],[-0.10654822400000001,38.52835187],[-0.106476227,38.528431175],[-0.10639277300000001,38.528510196],[-0.10633223400000001,38.528589784000005],[-0.106294973,38.528660938],[-0.106348654,38.528752362000006],[-0.10643743100000001,38.528826635],[-0.106514751,38.528900625000006],[-0.10660425100000001,38.528956897],[-0.106719193,38.528950731],[-0.106857773,38.528927131],[-0.106996353,38.528903531000005],[-0.107146031,38.528889215],[-0.107272431,38.528883332],[-0.107387012,38.528886166],[-0.10752523200000001,38.528871566],[-0.107664172,38.528838965000006],[-0.10778127900000001,38.528778794000004],[-0.107898746,38.528709623000005],[-0.10800403300000001,38.528658169],[-0.108120057,38.528625000000005],[-0.10823499800000001,38.528618833],[-0.108361038,38.52862195],[-0.10848779800000001,38.528607065],[-0.10861419800000001,38.528601181],[-0.108751334,38.528613581],[-0.108853375,38.528643133],[-0.108905978,38.528761558],[-0.108900569,38.528896567000004],[-0.10885077000000001,38.528994441],[-0.108789512,38.529092032],[-0.10872825500000001,38.529189623],[-0.10867845500000001,38.529287496],[-0.10861683600000001,38.529394088000004],[-0.10855557800000001,38.529491678],[-0.108506499,38.529571551000004],[-0.108468518,38.529660707000005],[-0.108430176,38.529758864],[-0.108391833,38.529857021000005],[-0.108353852,38.529946177],[-0.10831587000000001,38.530035334000004],[-0.108253889,38.530150925],[-0.108191908,38.530266517],[-0.108142107,38.53036439],[-0.10810412500000001,38.530453547],[-0.10800921100000001,38.530532285],[-0.10792539500000001,38.530620308],[-0.10785375800000001,38.530690613000004],[-0.107804678,38.530770485000005],[-0.10775487600000001,38.530868358],[-0.107716532,38.530966515],[-0.10766600800000001,38.531082389000005],[-0.10760438600000001,38.53118898],[-0.10756568100000001,38.531296137000005],[-0.107538434,38.531403578],[-0.107534104,38.531511585000004],[-0.107541233,38.531619876],[-0.10754836200000001,38.531728167000004],[-0.10755585200000001,38.531827457000006],[-0.10757480000000001,38.531927031],[-0.10759338800000001,38.532035606],[-0.10761269700000001,38.532126179],[-0.10763164600000001,38.532225753000006],[-0.10763805300000001,38.532352045],[-0.10765664100000001,38.532460619000005],[-0.10771068700000001,38.532543042],[-0.10777655300000001,38.532616748],[-0.10786569800000001,38.532682019],[-0.10796702300000001,38.532729573000005],[-0.10807944600000001,38.532786411000004],[-0.108203688,38.532834531],[-0.10833939000000001,38.532882935],[-0.10847509200000001,38.532931338000004],[-0.10858859800000001,38.532961174],[-0.10871320200000001,38.533000293],[-0.108837084,38.533057413],[-0.108949509,38.533114250000004],[-0.10907231,38.533198372],[-0.10919511200000001,38.533282494000005],[-0.109307176,38.533348331],[-0.10941924,38.533414169000004],[-0.109519846,38.533479722],[-0.109632272,38.533536559000005],[-0.10977943400000001,38.533585244],[-0.10994951500000001,38.533634496000005],[-0.11010813800000001,38.533683464],[-0.11027821900000001,38.533732715],[-0.11040282500000001,38.533771832],[-0.110538891,38.533811233],[-0.110686055,38.533859917],[-0.11083321900000001,38.533908601],[-0.110992564,38.533939567000004],[-0.11115226800000001,38.533961531],[-0.111288695,38.533991931],[-0.11143694100000001,38.534013612],[-0.11160810500000001,38.534035859],[-0.11179108900000001,38.534049388],[-0.11196225300000001,38.534071635000004],[-0.11214523700000001,38.534085164000004],[-0.112304943,38.534107127000006],[-0.112476107,38.534129373],[-0.11258997700000001,38.534150204],[-0.112704207,38.534162034000005],[-0.11287501200000001,38.534193281],[-0.113034358,38.534224243000004],[-0.11317078600000001,38.53425464],[-0.11330757400000001,38.534276036],[-0.11346692100000001,38.534306999],[-0.11362662700000001,38.53432896],[-0.113752317,38.534341072000004],[-0.11387764700000001,38.534362185],[-0.11404881300000001,38.534384429],[-0.11420852000000001,38.534406389000004],[-0.11434566900000001,38.534418784],[-0.114483178,38.534422177],[-0.11464288500000001,38.534444137],[-0.114814411,38.534457379],[-0.114996677,38.534488905],[-0.11517930300000001,38.53451143],[-0.11530499300000001,38.53452354],[-0.115430684,38.53453565],[-0.115590751,38.534548608],[-0.115761918,38.53457085],[-0.11593344500000001,38.53458409],[-0.11609351300000001,38.534597048],[-0.11627614000000001,38.534619571],[-0.116470585,38.534633375000006],[-0.116584457,38.534654203],[-0.11669868900000001,38.534666029],[-0.11686985700000001,38.534688269],[-0.11704138400000001,38.534701507],[-0.11716707600000001,38.534713616000005],[-0.117292407,38.534734725],[-0.117463575,38.534756964],[-0.11763438400000001,38.534788203000005],[-0.11777153500000001,38.534800593],[-0.117896866,38.534821702],[-0.11805657600000001,38.534843657],[-0.118227385,38.534874896000005],[-0.11834161800000001,38.53488672],[-0.118467309,38.534898827],[-0.11864993700000001,38.534921347],[-0.118821466,38.534934583],[-0.118969717,38.534956255000004],[-0.11911832700000001,38.534968926000005],[-0.11930095600000001,38.534991445],[-0.11948394400000001,38.535004962],[-0.119609636,38.535017068],[-0.119735329,38.535029174],[-0.119940876,38.535052256],[-0.120135324,38.535066054000005],[-0.120272476,38.535078442],[-0.120409627,38.535090829000005],[-0.120615176,38.53511391],[-0.12082108300000001,38.53512799],[-0.120969694,38.535140658],[-0.121106846,38.535153045],[-0.12128947600000001,38.53517556],[-0.121483925,38.535189357],[-0.12163253600000001,38.535202025000004],[-0.12179260700000001,38.535214974000006],[-0.12201033300000001,38.535220333000005],[-0.12221660100000001,38.53522541],[-0.12238813100000001,38.535238641],[-0.12254856100000001,38.535242589],[-0.12275482800000001,38.535247665],[-0.122972914,38.535244021000004],[-0.12311042600000001,38.535247404],[-0.12325975500000001,38.535242069000006],[-0.12343200400000001,38.535237297],[-0.123592793,38.535232243],[-0.123730663,38.535226624],[-0.123856716,38.535229725],[-0.12404042400000001,38.535225234],[-0.12421267200000001,38.535220461],[-0.12435054200000001,38.535214842],[-0.124488413,38.535209223],[-0.12468358,38.535205012000006],[-0.124867288,38.535200520000004],[-0.125016617,38.535195182],[-0.125165947,38.535189844],[-0.12537293200000002,38.535176913],[-0.12558027500000002,38.535154982],[-0.125729605,38.535149643000004],[-0.125878935,38.535144304],[-0.12607446,38.53513109],[-0.126269985,38.535117877000005],[-0.126419315,38.535112537],[-0.126569003,38.535098196],[-0.12673015,38.535084137000005],[-0.126903115,38.535061358],[-0.127018067,38.535055173],[-0.12713337700000002,38.535039987000005],[-0.12729452400000002,38.535025927],[-0.127456029,38.535002865],[-0.12759425800000002,38.534988242000004],[-0.127732844,38.534964617],[-0.12789435000000002,38.534941556],[-0.128044754,38.534909211000006],[-0.128229536,38.534877711],[-0.12842577700000002,38.534846492],[-0.12858692300000002,38.53483243],[-0.128748428,38.534809367],[-0.12893285100000001,38.534786867],[-0.12910617400000002,38.534755083],[-0.129268396,38.534714017],[-0.129430618,38.53467295],[-0.129558103,38.53464004],[-0.129674488,38.534597849],[-0.12980197300000001,38.534564939],[-0.129918357,38.534522746],[-0.130046558,38.534471835000005],[-0.130152556,38.534402359000005],[-0.130258912,38.534323882],[-0.130354525,38.534227122000004],[-0.130405016,38.534111236],[-0.13046696600000002,38.533995631],[-0.13055076100000002,38.533907590000005],[-0.130646014,38.533819831],[-0.130729451,38.533740791],[-0.130812529,38.533670753],[-0.130884505,38.533591432],[-0.130956482,38.533512111],[-0.13102881600000002,38.533423789000004],[-0.13110079200000002,38.533344468],[-0.13119497100000002,38.533283711],[-0.131312425,38.533214514],[-0.131384401,38.533135193],[-0.131455661,38.533073874],[-0.13154626,38.533103124],[-0.131624327,38.533159096000006],[-0.131676971,38.533277512000005],[-0.131648328,38.533420964],[-0.13159927100000002,38.533500847],[-0.131538396,38.53358945],[-0.131454245,38.533686492],[-0.131381196,38.533792816],[-0.1313658,38.533891544],[-0.131384782,38.533991115],[-0.131415581,38.534081967000006],[-0.13148147400000001,38.53415566],[-0.13158138700000002,38.534239197000005],[-0.131705293,38.534296293000004],[-0.131840658,38.53435367],[-0.132000015,38.534384606],[-0.13212571,38.534396698],[-0.132252121,38.534390788],[-0.132378889,38.534375877],[-0.132517474,38.534352246000005],[-0.132633141,38.534328052],[-0.132748808,38.534303859000005],[-0.132968681,38.534255191],[-0.133095807,38.534231278],[-0.13333931400000001,38.53416517],[-0.13342024400000002,38.534149134],[-0.133548085,38.534107219],[-0.133652649,38.534073743],[-0.13375757100000002,38.534031266],[-0.13386285,38.533979789],[-0.133979588,38.533928591000006],[-0.134106356,38.533913678000005],[-0.134244225,38.533908047000004],[-0.134369919,38.533920136],[-0.13448344,38.533949946],[-0.134571897,38.5340332],[-0.13460270100000002,38.53412405],[-0.134564748,38.534213217],[-0.134470213,38.534282978],[-0.13435419,38.534316174000004],[-0.134204145,38.534339526000004],[-0.134088479,38.534363721000005],[-0.133961354,38.534387635],[-0.133834943,38.534393547],[-0.13370853200000002,38.534399459],[-0.13357137800000002,38.534387088],[-0.133444967,38.534393],[-0.13331748300000001,38.534425914],[-0.133211846,38.534486392000005],[-0.13316207400000002,38.534584278000004],[-0.133146323,38.534692007000004],[-0.133142388,38.534791016],[-0.133161731,38.534881586000004],[-0.13319181700000002,38.534990439000005],[-0.13323336300000002,38.535099573000004],[-0.13326345,38.535208426000004],[-0.133316813,38.535308839],[-0.13337089200000002,38.535391251],[-0.133448605,38.535456223000004],[-0.133563558,38.535450031],[-0.133690686,38.535426117],[-0.133818171,38.535393203000005],[-0.133956758,38.53536957],[-0.134082098,38.535390661],[-0.134194905,38.535438473],[-0.134284079,38.535503725000005],[-0.134361078,38.535586698],[-0.13444918,38.535678953],[-0.134537281,38.535771207],[-0.134637915,38.53583674],[-0.13473890700000002,38.535893272],[-0.13484025600000002,38.535940802],[-0.13494160600000002,38.535988333000006],[-0.13505477200000002,38.536027144],[-0.135179399,38.536066235],[-0.135315485,38.536105606],[-0.135463031,38.536145258000005],[-0.135588372,38.536166347000005],[-0.135725174,38.536187717000004],[-0.135839056,38.536208525],[-0.13596439700000001,38.536229613],[-0.136101556,38.536241981],[-0.136250175,38.53625463],[-0.136375874,38.536266717000004],[-0.136501216,38.536287805],[-0.136638375,38.536300173],[-0.136775892,38.536303539],[-0.136924868,38.536307186],[-0.137073844,38.536310833],[-0.137211361,38.536314199],[-0.137348877,38.536317564],[-0.137486394,38.53632093],[-0.13763537,38.536324576000005],[-0.137772886,38.536327941],[-0.13791040300000001,38.536331306],[-0.138059022,38.536343953],[-0.138196539,38.536347318000004],[-0.138345515,38.536350963000004],[-0.138483389,38.536345326],[-0.13862090600000002,38.536348690000004],[-0.138769882,38.536352335000004],[-0.13890739900000001,38.536355699000005],[-0.139056375,38.536359343],[-0.139193892,38.536362707],[-0.13933140900000002,38.53636607],[-0.139457466,38.536369153],[-0.139594983,38.536372516],[-0.13974396,38.53637616],[-0.139893293,38.536370802],[-0.140031167,38.536365164],[-0.140180144,38.536368806000006],[-0.140329477,38.536363448],[-0.14047881,38.536358089000004],[-0.140628144,38.536352731],[-0.14076601800000002,38.536347091],[-0.14091535100000002,38.536341732000004],[-0.141053225,38.536336093],[-0.141214375,38.536322013],[-0.141363708,38.536316653],[-0.141490122,38.536310733],[-0.141627639,38.536314094000005],[-0.141765512,38.536308453000004],[-0.141914846,38.536303093],[-0.14204126,38.536297172000005],[-0.142179133,38.536291531],[-0.142293731,38.536294331],[-0.142408685,38.53628813],[-0.142523639,38.536281929000005],[-0.142638593,38.536275728],[-0.14277646700000002,38.536270086],[-0.14291434,38.536264445],[-0.14302893800000002,38.536267244],[-0.143143179,38.536279044000004],[-0.143292156,38.536282683],[-0.143441489,38.53627732],[-0.143602282,38.536272238],[-0.143774535,38.536267435],[-0.143797811,38.536258993000004],[-0.143901305,38.536252511],[-0.14403917800000002,38.536246868],[-0.144177408,38.536232224],[-0.144315638,38.53621758],[-0.144465327,38.536203215],[-0.14461537300000002,38.536179849],[-0.144753246,38.536174206000005],[-0.14489112,38.536168562],[-0.145041165,38.536145195],[-0.14517939500000002,38.53613055],[-0.145317624,38.536115904],[-0.145444394,38.536100979000004],[-0.145594083,38.536086613],[-0.14574377200000002,38.536072247],[-0.145893817,38.536048879],[-0.14604350600000002,38.536034513000004],[-0.14617027500000002,38.536019587000006],[-0.146308504,38.536004940000005],[-0.146446733,38.535990293000005],[-0.146573858,38.535966366000004],[-0.14668988000000002,38.535933158],[-0.146817005,38.53590923],[-0.14693267000000002,38.535885022],[-0.147058727,38.535888097000004],[-0.147184072,38.535909174000004],[-0.147298314,38.53592097],[-0.14743583100000002,38.535924324],[-0.14757406,38.535909676],[-0.147712644,38.535886026],[-0.14785194000000002,38.535844375],[-0.14796831700000002,38.535802165],[-0.148084337,38.535768955],[-0.148234381,38.535745584000004],[-0.14837260900000002,38.535730935000004],[-0.148522297,38.535716565],[-0.14866017,38.535710917],[-0.148809502,38.535705548],[-0.148970294,38.535700458],[-0.14910816600000001,38.535694809],[-0.14925749800000002,38.535689439],[-0.149395371,38.535683789000004],[-0.14952178300000002,38.53567786],[-0.149671471,38.535663489],[-0.149821159,38.535649118],[-0.14994863800000002,38.535616185],[-0.150076117,38.535583253000006],[-0.150204307,38.535532319000005],[-0.150321393,38.535472104],[-0.15042701900000002,38.535411610000004],[-0.150531934,38.535369117],[-0.150670161,38.535354466],[-0.150819492,38.535349094000004],[-0.15093515600000001,38.535324882000005],[-0.151051174,38.53529167],[-0.15116790400000002,38.535240455],[-0.151284633,38.53518924],[-0.15142357,38.535156585],[-0.151562152,38.535132931],[-0.151700734,38.535109277000004],[-0.15182821200000002,38.535076343],[-0.15197860900000001,38.535043966],[-0.152117901,38.53500231],[-0.15224573300000002,38.534960374],[-0.152385025,38.534918717000004],[-0.152524672,38.534868059000004],[-0.152664675,38.5348084],[-0.15278175700000002,38.534748182],[-0.15290994400000002,38.534697245000004],[-0.153027026,38.534637027],[-0.153144464,38.534567808000006],[-0.15323862600000002,38.534507033000004],[-0.153332789,38.534446257],[-0.153460975,38.534395319000005],[-0.153577346,38.534353102000004],[-0.153705177,38.534311165000005],[-0.15383300700000002,38.534269227],[-0.15392681400000002,38.534217452],[-0.15402062,38.534165677000004],[-0.154114782,38.5341049],[-0.15420929800000002,38.534035123],[-0.154327088,38.533956902],[-0.15443341900000002,38.533878402],[-0.15452864400000002,38.533790622000005],[-0.154612765,38.533693562],[-0.15469617600000002,38.533614504],[-0.154779942,38.533526445],[-0.154885916,38.533456946],[-0.155003349,38.533387725000004],[-0.155108614,38.533336227],[-0.155214233,38.533275729],[-0.155343125,38.533206786],[-0.155460912,38.533128564],[-0.155544322,38.533049506000005],[-0.15563919,38.532970726],[-0.15575555800000002,38.532928507],[-0.15587157000000001,38.53289529],[-0.155999042,38.53286235],[-0.15611576400000002,38.53281113],[-0.15620956800000002,38.532759353],[-0.156303725,38.532698575000005],[-0.156386424,38.532637518],[-0.15646912200000002,38.532576461000005],[-0.156575093,38.53250696],[-0.156692878,38.532428736],[-0.15681066300000002,38.532350512],[-0.156916989,38.53227201],[-0.157011855,38.532193229],[-0.15710672,38.532114447000005],[-0.15720194,38.532026665000004],[-0.157296806,38.531947884000004],[-0.157425339,38.531887940000004],[-0.157542058,38.531836718],[-0.157659132,38.531776496],[-0.157753642,38.531706715000006],[-0.157825943,38.531618375],[-0.157909347,38.531539315],[-0.15801531600000002,38.531469812000005],[-0.158132389,38.531409589],[-0.158226898,38.531339808000006],[-0.158321761,38.531261026],[-0.15841733300000002,38.531164241],[-0.158512905,38.531067457],[-0.15860705800000002,38.531006676000004],[-0.15868975300000002,38.530945618000004],[-0.15879572,38.530876114],[-0.158890581,38.530797331],[-0.15898473400000002,38.530736551000004],[-0.159067428,38.530675492],[-0.159174103,38.530587986],[-0.159280778,38.53050048],[-0.15936382500000001,38.530430419000005],[-0.15944687300000002,38.530360359],[-0.159518815,38.530281019],[-0.159601862,38.530210958000005],[-0.15968526400000002,38.530131897000004],[-0.159769019,38.530043834000004],[-0.15985206600000001,38.529973773],[-0.15993511200000002,38.529903712],[-0.16001815800000002,38.529833651000004],[-0.160089391,38.529772313],[-0.160172437,38.529702252],[-0.16024437900000002,38.529622911000004],[-0.16033923700000002,38.529544127],[-0.16043480400000001,38.529447341],[-0.160507807,38.529340997000006],[-0.16058081000000002,38.529234653],[-0.160664563,38.52914659],[-0.160736858,38.529058248000005],[-0.16081990200000001,38.528988186],[-0.160891842,38.528908845000004],[-0.16096342700000002,38.528838505],[-0.161035367,38.528759164],[-0.161107306,38.528679823000004],[-0.161191058,38.528591759],[-0.161251538,38.528512140000004],[-0.161300559,38.528432243000005],[-0.161362101,38.528325620000004],[-0.161423289,38.528227999],[-0.161484123,38.528139378000006],[-0.161556061,38.528060037],[-0.16162799900000002,38.527980695000004],[-0.16169993700000002,38.527901354],[-0.161761124,38.527803732],[-0.16182231,38.527706110000004],[-0.16188385100000002,38.527599488],[-0.16194539200000002,38.527492865],[-0.16200693200000002,38.527386242000006],[-0.162045201,38.527288064000004],[-0.16207236500000002,38.527180607000005],[-0.162052988,38.527090040000004],[-0.16196309,38.527042810000005],[-0.161849567,38.527013027],[-0.16174785600000002,38.52697452],[-0.1616465,38.526927013000005],[-0.16154479000000002,38.526888506000006],[-0.161443434,38.526840998000004],[-0.16134314000000002,38.526766487],[-0.161253951,38.526701254],[-0.161154012,38.526617742],[-0.16106588500000002,38.526525506000006],[-0.16097740500000002,38.526442272000004],[-0.160900383,38.526359316000004],[-0.160835174,38.526267636],[-0.16076996500000001,38.526175957],[-0.160669673,38.526101445],[-0.160569381,38.526026933000004],[-0.16050381800000002,38.525944254],[-0.160461172,38.525862132],[-0.160441797,38.525771565],[-0.160434234,38.525672275000005],[-0.16043813,38.525573263000005],[-0.160464941,38.525474808000006],[-0.16049175300000001,38.525376352],[-0.16054183500000002,38.525269452],[-0.160591209,38.525180554],[-0.160640583,38.525091655000004],[-0.160678498,38.525002479],[-0.16072787200000002,38.524913581],[-0.16076578700000002,38.524824404],[-0.160826618,38.524735784],[-0.160898553,38.524656443000005],[-0.16099305,38.524586659],[-0.161098297,38.524535155],[-0.16121500200000002,38.524483929000006],[-0.161320249,38.524432425],[-0.16141439100000002,38.524371642000006],[-0.161530388,38.524338418],[-0.161646384,38.524305194],[-0.16179675400000001,38.524272804],[-0.16194677000000002,38.524249415],[-0.162073871,38.524225470000005],[-0.162201325,38.524192523],[-0.162318028,38.524141296],[-0.162445836,38.524099348],[-0.162562539,38.524048121],[-0.16269070000000002,38.523997171000005],[-0.162817446,38.523982226],[-0.162943837,38.523976282],[-0.163070937,38.523952336],[-0.163186932,38.52391911],[-0.163291823,38.523876605000005],[-0.163396713,38.523834101000006],[-0.163535978,38.523792429000004],[-0.16367488800000002,38.523759759],[-0.163801987,38.523735811],[-0.163917628,38.523711586000005],[-0.16400271900000002,38.523698318],[-0.16442249,38.525165374000004],[-0.165639381,38.528348255000004],[-0.167160722,38.532835891000005],[-0.16721307200000002,38.532963294000005],[-0.169293051,38.539005085],[-0.16962549500000002,38.540472698],[-0.16971274900000002,38.540880244],[-0.16992863900000002,38.542687403],[-0.17025337100000001,38.543767411000005],[-0.170364966,38.544139507000004],[-0.17091288300000002,38.546549334000005],[-0.172728615,38.552909019000005],[-0.173035781,38.554439077000005],[-0.174079429,38.558257344000005],[-0.174147152,38.558286009],[-0.175111702,38.560904078],[-0.173112189,38.561855825],[-0.170404827,38.563006641],[-0.167870913,38.564413862],[-0.16433528,38.566778782],[-0.15904369100000001,38.570596528],[-0.16119909000000002,38.57385628],[-0.164555902,38.578965066],[-0.16532387,38.579866624000005],[-0.167223486,38.582930867],[-0.16787231700000002,38.583361026000006],[-0.179698343,38.591485227],[-0.179536887,38.595607716],[-0.18661249200000002,38.604913914],[-0.186662257,38.606284566],[-0.186822227,38.606892057],[-0.18691090800000001,38.607560899],[-0.18670133,38.608222564],[-0.18672997500000002,38.610133282],[-0.17861353600000002,38.605108542],[-0.176494603,38.603805052000006]]]]}}]}