{"type":"FeatureCollection","features":[{"type":"Feature","id":1,"geometry":{"type":"Polygon","coordinates":[[[-0.15670115904100124,38.5352657418092],[-0.15651416748580393,38.53455794069305],[-0.15609335310008454,38.53341704792857],[-0.15583763428498143,38.53355713534891],[-0.15570708294549096,38.53362588494322],[-0.15514962508270091,38.533919404201114],[-0.15496455574510826,38.53406946933323],[-0.1550268326896722,38.534130765853284],[-0.1557113970333388,38.53493505875586],[-0.15602455379376678,38.53516771362025],[-0.1560241017754156,38.53517918532878],[-0.15635489770360067,38.53508628565026],[-0.15652674650030685,38.53520238840012],[-0.15665861977395767,38.535531715595056],[-0.15669229881617985,38.5354905684343],[-0.15670115904100124,38.5352657418092]]]},"properties":{"id":352,"area_municipal_m2":16069.94,"leyenda":"Bajo","area":16093.02661,"hyperlink":"http://www.citma.gva.es/patricova","shape_Leng":608.988888334,"shape_Area":16093.0266072}},{"type":"Feature","id":2,"geometry":{"type":"Polygon","coordinates":[[[-0.15714032203908124,38.5383035277036],[-0.15692129003150113,38.53785906876283],[-0.15676121291883227,38.537376965024066],[-0.15677561142430374,38.53701162376522],[-0.15650708685785286,38.53655501191169],[-0.1565050460021853,38.53654313815011],[-0.1562790131793177,38.53661038743118],[-0.15666674906551892,38.53741603214982],[-0.1566539539103089,38.53818452561544],[-0.15683311453653737,38.538518350700684],[-0.15714032203908124,38.5383035277036]]]},"properties":{"id":353,"area_municipal_m2":4760.8,"leyenda":"Bajo","area":4767.6463,"hyperlink":"http://www.citma.gva.es/patricova","shape_Leng":484.195107308,"shape_Area":4767.64630101}},{"type":"Feature","id":3,"geometry":{"type":"Polygon","coordinates":[[[-0.10763076655954995,38.533107170557244],[-0.10665560922454675,38.53244937021507],[-0.10651336414820722,38.53215304037044],[-0.10653466070196993,38.53206312896503],[-0.10631182829195263,38.53219328066182],[-0.1060247876121263,38.532357809509165],[-0.10584628873337909,38.532564305046044],[-0.10576220848577877,38.53285323224584],[-0.10572675164087775,38.53303371687353],[-0.10577008933780219,38.53311569596549],[-0.10584040057120614,38.533248701729796],[-0.10592768343948755,38.53339177374468],[-0.10586381555744717,38.533691560985986],[-0.10571989792544612,38.533819360690124],[-0.1057498171647584,38.534294451892514],[-0.10575326402385699,38.5346803276619],[-0.10569744366192602,38.53484508152001],[-0.10552615959702383,38.53498886691873],[-0.10534342501466787,38.535140661060424],[-0.10511566974883824,38.535525313449035],[-0.10497023004037631,38.53581389275457],[-0.10477033919111634,38.53614725373412],[-0.1045075715441639,38.536649606620095],[-0.10436962407026051,38.536868543460564],[-0.10408440163544386,38.53737871828591],[-0.1039384724756176,38.53763638151149],[-0.10358376367995037,38.538288532277875],[-0.1035466768779969,38.538362015184006],[-0.10351060555784253,38.53843348797927],[-0.1034949977380637,38.53846359319999],[-0.10338539597859508,38.538674992291575],[-0.10351018850876148,38.538741566480596],[-0.10356923877726043,38.53877306699201],[-0.10371301821274814,38.538757618525686],[-0.10396829310933198,38.5388965639864],[-0.1044722182227118,38.53911292217021],[-0.10454081392240244,38.5391423736564],[-0.10473056959247629,38.5392260047678],[-0.10481452974550054,38.53915901783579],[-0.1048170001115869,38.53915720049755],[-0.10482130301437387,38.53915416718476],[-0.10547648207628235,38.538733267092724],[-0.10674217294700972,38.53648427729116],[-0.10696331373742396,38.535934766599546],[-0.10709198059603597,38.535539098574176],[-0.10714822378581168,38.53491070846177],[-0.10722113141664158,38.533686045666386],[-0.10719089017284,38.53349687173046],[-0.10719104974909532,38.5334964675466],[-0.10763076655954995,38.533107170557244]]]},"properties":{"id":354,"area_municipal_m2":116256.39,"leyenda":"Bajo","area":116430.02063,"hyperlink":"http://www.citma.gva.es/patricova","shape_Leng":1865.16634758,"shape_Area":116430.020628}},{"type":"Feature","id":4,"geometry":{"type":"Polygon","coordinates":[[[-0.11479505799356726,38.53505575221244],[-0.11463513169579365,38.535033934967075],[-0.11344784769660565,38.534874932361205],[-0.11340948278900331,38.53486979364192],[-0.11337230992656755,38.53505471077744],[-0.11328920404040232,38.535632424713796],[-0.11325143646196079,38.53597142277599],[-0.1131648659169433,38.53635471448327],[-0.11299471400674932,38.53707235974316],[-0.11291951996161975,38.5376155818995],[-0.11289631509732212,38.53784286014846],[-0.11293763756816766,38.537953977701704],[-0.11305658863068757,38.538060073633446],[-0.11301297750183936,38.538186752885764],[-0.11229478519061864,38.538613549107666],[-0.11213422412847951,38.5385525538363],[-0.11172305053290632,38.53870853355695],[-0.11074030828677683,38.53880056726503],[-0.11051016127069202,38.53859243536935],[-0.11036449586921337,38.5384517103749],[-0.10999735516738696,38.538184242892896],[-0.10967478141505183,38.53793256084121],[-0.109217984110483,38.53758106792966],[-0.10906958108915399,38.53744576950431],[-0.10855723812886264,38.537381295906684],[-0.10834410604628086,38.53731845467902],[-0.1077300269394037,38.53688180010383],[-0.10762426178921602,38.536701695744405],[-0.10797761551698759,38.53619671159197],[-0.1079797793599977,38.53595386760582],[-0.10799594968996962,38.535647762900346],[-0.10799760420399185,38.53545770188293],[-0.10814767927265612,38.535173378453436],[-0.10833804646123957,38.534905456940045],[-0.1084062865615909,38.534768307451124],[-0.10865140618072777,38.53436767750191],[-0.10881474866557816,38.534104222632045],[-0.10893687982890832,38.53395894552908],[-0.1091334012908014,38.533672064646794],[-0.10861008455678922,38.53343087505992],[-0.10851102403051671,38.533377691648994],[-0.10786115792440443,38.533223474845606],[-0.10739979019935353,38.53361595470147],[-0.1073222918656982,38.53491789111505],[-0.10732213097553922,38.534919472806024],[-0.10726528185921991,38.535554861923046],[-0.10726511623352142,38.53555670477167],[-0.10726437742930095,38.53556111466441],[-0.10726326047281631,38.53556551520674],[-0.1072627744360184,38.53556705281978],[-0.10713158795575994,38.535970515008536],[-0.10713053303505671,38.53597336745226],[-0.10713021981523996,38.535974170560415],[-0.10690692753171227,38.53652916470213],[-0.10690543358192972,38.53653252433141],[-0.10690359558606133,38.536536168260604],[-0.10593999303768609,38.53824824482175],[-0.10562744986465011,38.53880353729326],[-0.10562719418483013,38.53880404901231],[-0.10562468232975997,38.538808045635],[-0.10562184820611709,38.53881192617059],[-0.1056186919943718,38.538815686118795],[-0.10561521247703576,38.538819212830994],[-0.1056114579736338,38.53882258858796],[-0.10560742992813577,38.53882577738744],[-0.1056030828628951,38.5388287690948],[-0.10493540920615585,38.53925773499136],[-0.10489878823400867,38.5392869446887],[-0.10518513189851175,38.5393885238085],[-0.10572815642115119,38.5394805304758],[-0.10620971366572851,38.53957209351033],[-0.10636612884067853,38.539561414945396],[-0.1070999066995948,38.539511323961314],[-0.10748078513478987,38.5393759623572],[-0.10791187138772962,38.53937022850993],[-0.10813740573970865,38.539395717548096],[-0.1083208071139703,38.539307635396305],[-0.10894801053889624,38.53916547835034],[-0.10924614759340301,38.53910239343113],[-0.1094409648810859,38.53911297782922],[-0.10929008027908926,38.539657839649635],[-0.10912640816486263,38.54026410014986],[-0.10887907795909557,38.54063638524647],[-0.10869085479323726,38.540880267099475],[-0.10935601463852507,38.541242923885015],[-0.10939929184606978,38.541186306445255],[-0.10951443231019997,38.54101824159118],[-0.1097557821040196,38.54079230245276],[-0.109825971756349,38.540586547293444],[-0.10993259437629188,38.540247360771176],[-0.10999219501813995,38.53991935458974],[-0.10999914672004296,38.53959977617326],[-0.11023569620517559,38.539536431303375],[-0.11076036712967774,38.53915901131138],[-0.11091525391212187,38.539046618640405],[-0.11149979912952945,38.539090156428834],[-0.11172148238816693,38.53931781093933],[-0.11214982605488455,38.53972306327467],[-0.11222017453061373,38.53978961769463],[-0.11232234635665783,38.539913022743626],[-0.11234078424682892,38.539935291634194],[-0.11248114444106694,38.54010481815467],[-0.11249515622852702,38.540108266870725],[-0.11321814994709456,38.539793013926364],[-0.11321737540825438,38.53978946399494],[-0.11305875672768728,38.539585265218484],[-0.11292235943796225,38.539396210906645],[-0.11269647805333793,38.53912142728128],[-0.11252086794345706,38.53869145680448],[-0.11292364058762328,38.53913775849205],[-0.11311031925849635,38.53936886750305],[-0.11337601457721824,38.53972662001913],[-0.11347195977191316,38.53986593346502],[-0.11389695795404275,38.5395649404079],[-0.11390995355964062,38.539555735281816],[-0.1139436273205332,38.5392072626759],[-0.11415799332231913,38.538278895498806],[-0.11418196319507068,38.538158668595976],[-0.11430310815551703,38.537412785167646],[-0.11433536648997755,38.53721428997194],[-0.11439941192185277,38.53689215680352],[-0.1145186621780554,38.53635695561915],[-0.114708183001754,38.535653661049935],[-0.11477313918726528,38.535162348080306],[-0.11479505799356726,38.53505575221244]]]},"properties":{"id":355,"area_municipal_m2":217483.69,"leyenda":"Bajo","area":217807.04837,"hyperlink":"http://www.citma.gva.es/patricova","shape_Leng":4430.88314197,"shape_Area":217807.04837}},{"type":"Feature","id":5,"geometry":{"type":"Polygon","coordinates":[[[-0.10600806831056264,38.54517857438171],[-0.10539345411193635,38.544778441770326],[-0.10528885192206383,38.544913306366986],[-0.10485435458709791,38.54531752717082],[-0.10445335761941044,38.54566158050569],[-0.10401897055626508,38.54611597897386],[-0.10476854867899998,38.546438781286895],[-0.10482521563619596,38.54631199800074],[-0.10497768201633173,38.545986205085335],[-0.10509148562332582,38.5458547804009],[-0.10513591446989423,38.54582537202235],[-0.10513703791854567,38.54582419165452],[-0.10514079138397081,38.545820851933556],[-0.10514176366917027,38.54582006514237],[-0.1052115205249291,38.54576329740799],[-0.10521457490484787,38.54576094043577],[-0.10521616941472489,38.5457597996534],[-0.10534401391976811,38.54567003958283],[-0.10534666643408341,38.54566826278298],[-0.10534787221569797,38.545667517805754],[-0.10563355581993994,38.54548926821823],[-0.10592172421771728,38.54523736930905],[-0.10600806831056264,38.54517857438171]]]},"properties":{"id":356,"area_municipal_m2":11555.63,"leyenda":"Bajo","area":11572.89213,"hyperlink":"http://www.citma.gva.es/patricova","shape_Leng":516.424834,"shape_Area":11572.8921336}},{"type":"Feature","id":6,"geometry":{"type":"Polygon","coordinates":[[[-0.10333075056360563,38.54743925077143],[-0.10328935949167573,38.54728921381652],[-0.10320582291237157,38.547175369288915],[-0.10315990261905261,38.547136996022665],[-0.1031753937832196,38.54708948083807],[-0.10326763709831877,38.54698533631701],[-0.10325279093316153,38.54692635942374],[-0.10316196407197076,38.54707462861716],[-0.1029244924577779,38.54720298682618],[-0.10290930623957673,38.547581009906054],[-0.10276893845788582,38.547793215435746],[-0.1031174432807429,38.54786211617567],[-0.10320364553637473,38.5478791615544],[-0.10327947134287196,38.547704052889614],[-0.10332605522308924,38.54755618993864],[-0.10333075056360563,38.54743925077143]]]},"properties":{"id":357,"area_municipal_m2":2746.39,"leyenda":"Bajo","area":2750.49867,"hyperlink":"http://www.citma.gva.es/patricova","shape_Leng":265.205880005,"shape_Area":2750.49866791}},{"type":"Feature","id":7,"geometry":{"type":"Polygon","coordinates":[[[-0.10219757164409105,38.55060227645463],[-0.10087125320984125,38.549697095194894],[-0.10067628088412084,38.54994714300382],[-0.10025445591829252,38.55041995136966],[-0.09998111574777235,38.550669491314835],[-0.09974105733257899,38.5508588626888],[-0.0995445916264206,38.55112247210958],[-0.09954452590408946,38.55112410659627],[-0.09971347491537186,38.551187874282334],[-0.09949520998476524,38.55143469184888],[-0.09948808185325797,38.55146016950906],[-0.0997543192496324,38.5515914851185],[-0.10006763063874713,38.55159925744046],[-0.10031863405018626,38.55152007296985],[-0.100431473579218,38.55141304578695],[-0.10072497520670254,38.55143248714571],[-0.1009982158434477,38.55157350462906],[-0.1012558660995837,38.55171422523347],[-0.10155180525939889,38.551961562314354],[-0.1015758507972011,38.55191810099797],[-0.10206647791878565,38.55087554253525],[-0.10206663456676912,38.55087521306617],[-0.10219741499736701,38.55060260592394],[-0.10219757164409105,38.55060227645463]]]},"properties":{"id":358,"area_municipal_m2":31117.22,"leyenda":"Bajo","area":31163.84184,"hyperlink":"http://www.citma.gva.es/patricova","shape_Leng":776.993055803,"shape_Area":31163.8418417}},{"type":"Feature","id":8,"geometry":{"type":"Polygon","coordinates":[[[-0.1657558741194479,38.52869188520295],[-0.165639381,38.528348255000004],[-0.16545385680558608,38.52786300082897],[-0.1653191292085947,38.52807681377673],[-0.16530364954660737,38.5280930091796],[-0.1653097621799149,38.52822800837887],[-0.1653593776574791,38.5284131881735],[-0.16574331437789702,38.528696878473845],[-0.1657558741194479,38.52869188520295]]]},"properties":{"id":2339,"area_municipal_m2":1559.86,"leyenda":"Medio","area":152354.35098,"hyperlink":"http://www.citma.gva.es/patricova","shape_Leng":2889.42222899,"shape_Area":152354.350976}},{"type":"Feature","id":9,"geometry":{"type":"Polygon","coordinates":[[[-0.11340948278900331,38.53486979364192],[-0.11072326631121499,38.534509943624904],[-0.1106299388298595,38.5344974534763],[-0.10987975335256817,38.534066090544364],[-0.10980141587772607,38.534026590215475],[-0.10922601934928933,38.53371474996263],[-0.1091334012908014,38.533672064646794],[-0.10893687982890832,38.53395894552908],[-0.10881474866557816,38.534104222632045],[-0.10865140618072777,38.53436767750191],[-0.1084062865615909,38.534768307451124],[-0.10833804646123957,38.534905456940045],[-0.10814767927265612,38.535173378453436],[-0.10799760420399185,38.53545770188293],[-0.10799594968996962,38.535647762900346],[-0.1079797793599977,38.53595386760582],[-0.10797761551698759,38.53619671159197],[-0.10762426178921602,38.536701695744405],[-0.1077300269394037,38.53688180010383],[-0.10834410604628086,38.53731845467902],[-0.10855723812886264,38.537381295906684],[-0.10906958108915399,38.53744576950431],[-0.109217984110483,38.53758106792966],[-0.10967478141505183,38.53793256084121],[-0.10999735516738696,38.538184242892896],[-0.11036449586921337,38.5384517103749],[-0.11051016127069202,38.53859243536935],[-0.11074030828677683,38.53880056726503],[-0.11172305053290632,38.53870853355695],[-0.11213422412847951,38.5385525538363],[-0.11229478519061864,38.538613549107666],[-0.11301297750183936,38.538186752885764],[-0.11305658863068757,38.538060073633446],[-0.11293763756816766,38.537953977701704],[-0.11289631509732212,38.53784286014846],[-0.11291951996161975,38.5376155818995],[-0.11299471400674932,38.53707235974316],[-0.1131648659169433,38.53635471448327],[-0.11325143646196079,38.53597142277599],[-0.11328920404040232,38.535632424713796],[-0.11337230992656755,38.53505471077744],[-0.11340948278900331,38.53486979364192]]]},"properties":{"id":2340,"area_municipal_m2":186067.82,"leyenda":"Medio","area":186344.243,"hyperlink":"http://www.citma.gva.es/patricova","shape_Leng":1739.4989616,"shape_Area":186344.243001}},{"type":"Feature","id":10,"geometry":{"type":"Polygon","coordinates":[[[-0.11862776100118522,38.54644196898505],[-0.11835480484594196,38.546160541522646],[-0.11848034693952014,38.54611635491029],[-0.11824889896296886,38.545833316183085],[-0.1181269082540708,38.54569075213191],[-0.1179781456259068,38.545549104147376],[-0.11792030648711327,38.54559304645309],[-0.11791938305767413,38.545593762480536],[-0.1177853719557973,38.54569253375386],[-0.11767977126256923,38.54577347326516],[-0.11777490838543336,38.54584946812007],[-0.11801922566733092,38.54609740040323],[-0.11809384474682405,38.546239699383435],[-0.11832802346481008,38.54655476955056],[-0.1184352415486094,38.546634754475306],[-0.11862776100118522,38.54644196898505]]]},"properties":{"id":3168,"area_municipal_m2":3639.26,"leyenda":"Alto","area":3644.64624,"hyperlink":"http://www.citma.gva.es/patricova","shape_Leng":308.483755761,"shape_Area":3644.64623952}},{"type":"Feature","id":11,"geometry":{"type":"Polygon","coordinates":[[[-0.1178669096900653,38.54544318872153],[-0.11769445986168714,38.54527898534221],[-0.11730933264737642,38.544865955055634],[-0.11710311929198136,38.54460337396567],[-0.11692514808552534,38.5443632951396],[-0.11681249798246895,38.54422825765086],[-0.11668076711104902,38.54412293155474],[-0.11618685734617484,38.54369081282805],[-0.11612883371134997,38.54354099523992],[-0.11589580451841286,38.543085761499206],[-0.11555803586042002,38.54239252143484],[-0.11538326606093285,38.54204971739499],[-0.11516102721147581,38.54171214466249],[-0.11488062561303591,38.54124267608365],[-0.1146103111090615,38.54098004505379],[-0.11432853068285809,38.54068000608457],[-0.11391912166647966,38.54026498307569],[-0.11391578240876976,38.540261597815764],[-0.11370680948615108,38.54005075912991],[-0.11369261314695578,38.54003643605661],[-0.11347195977191316,38.53986593346502],[-0.11337601457721824,38.53972662001913],[-0.11311031925849635,38.53936886750305],[-0.11292364058762328,38.53913775849205],[-0.11252086794345706,38.53869145680448],[-0.11269647805333793,38.53912142728128],[-0.11292235943796225,38.539396210906645],[-0.11305875672768728,38.539585265218484],[-0.11321737540825438,38.53978946399494],[-0.11321814994709456,38.539793013926364],[-0.11331574926604393,38.53975045682676],[-0.11334308588215336,38.539788291006175],[-0.11334337648212944,38.53978853963115],[-0.11338719113265361,38.539876654227406],[-0.11338722671123014,38.53987691187574],[-0.11338709724268581,38.539877280773],[-0.11338665931661929,38.539877675394195],[-0.11342157998116287,38.53994839392847],[-0.11379982016634616,38.540205676425714],[-0.1151561635507905,38.54181259405448],[-0.11554497487712245,38.542677925442796],[-0.11543009378186397,38.54272172497516],[-0.11551639796092816,38.54284278279608],[-0.11564461124102055,38.54335156295467],[-0.11578389568569847,38.543681054117314],[-0.11580462162848137,38.54370060306783],[-0.11598144500243857,38.54386738017512],[-0.11621628207184953,38.544119672724875],[-0.11623177293123277,38.54413895200077],[-0.116385123835411,38.54432979894447],[-0.11654409933873522,38.54457724680128],[-0.11667470121083134,38.54481696770459],[-0.11675224223527048,38.544901927461176],[-0.11711608762229231,38.54530058208158],[-0.11732193034166416,38.54561549825232],[-0.11754122615401474,38.54568837228289],[-0.1176642186361283,38.54559407960535],[-0.1176654244997799,38.54559318584445],[-0.11773344940856889,38.545543052847954],[-0.11779958886967545,38.545494310369655],[-0.11785836434493246,38.545449701966355],[-0.11786147151002613,38.54544730541479],[-0.11786180839092308,38.5454470569443],[-0.1178623892076276,38.545446589246566],[-0.1178669096900653,38.54544318872153]]]},"properties":{"id":3510,"area_municipal_m2":18550.18,"leyenda":"Muy Alto","area":18577.78895,"hyperlink":"http://www.citma.gva.es/patricova","shape_Leng":1858.59130139,"shape_Area":18577.788952}},{"type":"Feature","id":12,"geometry":{"type":"Polygon","coordinates":[[[-0.10935601463852507,38.541242923885015],[-0.10869085479323726,38.540880267099475],[-0.10842158218597708,38.54122916168068],[-0.10780831705103644,38.54145806287332],[-0.10779343326594626,38.54146660977747],[-0.10752298925494097,38.5416219154202],[-0.10704003960992114,38.54207377832568],[-0.10664965954029615,38.542657216444276],[-0.10635002212725864,38.54317469605132],[-0.10612687686990174,38.54371839444625],[-0.1058627796854914,38.544121881956684],[-0.10584314342423662,38.54415728447417],[-0.10576260982400942,38.54430247612414],[-0.10539345411193635,38.544778441770326],[-0.10600806831056264,38.54517857438171],[-0.10638160633787974,38.54492421842829],[-0.10654748445440321,38.54478971705755],[-0.10659898814423618,38.54473830537851],[-0.10669029044044187,38.54462807315988],[-0.10669775081291544,38.544617627403426],[-0.10670093665923641,38.54461313389272],[-0.10672823017761957,38.544567603869254],[-0.1067631101150126,38.5445039632338],[-0.1067869281381455,38.5444455447775],[-0.10685509895251588,38.544267622454456],[-0.10697067219396628,38.54390957026685],[-0.10697077560664736,38.54390928001644],[-0.10712739072047883,38.543433416678994],[-0.10721457788654476,38.54316526417922],[-0.1072525434110072,38.542956384961336],[-0.10737013460914735,38.54272738883041],[-0.1074034773196435,38.54267441231194],[-0.1074194415183296,38.54264069628037],[-0.10742167431303784,38.542636508027066],[-0.1074234372106675,38.54263359650969],[-0.10749645049581291,38.54252122477551],[-0.1074972011241555,38.54252009913212],[-0.10749909251871159,38.54251741602756],[-0.10751830053890554,38.54249197700761],[-0.10763490821744703,38.542306706269486],[-0.10786053590776623,38.542139707207596],[-0.10786802808384488,38.542133265063555],[-0.10786870350185307,38.5421327276789],[-0.10787268562507801,38.542129542173335],[-0.1078731702843192,38.54212918476685],[-0.10798844522102469,38.542045534622574],[-0.10799091272896133,38.542043789223236],[-0.10810868605112356,38.5419646288773],[-0.10810994209138736,38.54196377249386],[-0.1081117284074753,38.54196270848688],[-0.10812137334501681,38.54195679163985],[-0.10830455487568358,38.54183053825279],[-0.10839487590920793,38.54180059350143],[-0.10839709188937796,38.54179945632229],[-0.10839747318122095,38.541799245014886],[-0.10849433462696823,38.5417495328863],[-0.108495868366981,38.541748759943054],[-0.10850075176253071,38.541746556201545],[-0.10850108432785044,38.54174641576524],[-0.1086511809109103,38.54168377532781],[-0.10877374799871475,38.541632815314955],[-0.1087784733407764,38.541630977043916],[-0.1087795195388459,38.541630633511836],[-0.10905571581839757,38.54153549452883],[-0.10908714784712581,38.54152320573779],[-0.10917036340895425,38.54148579971864],[-0.10935601463852507,38.541242923885015]]]},"properties":{"id":4288,"area_municipal_m2":37097.2,"leyenda":"Muy Bajo","area":37152.51161,"hyperlink":"http://www.citma.gva.es/patricova","shape_Leng":1227.85503217,"shape_Area":37152.5116083}},{"type":"Feature","id":13,"geometry":{"type":"Polygon","coordinates":[[[-0.11876154059538369,38.546579906415886],[-0.11875666986034084,38.5464688688066],[-0.11875562460358458,38.546445029175636],[-0.11857725110907102,38.54623485798683],[-0.11848034693952014,38.54611635491029],[-0.11835480484594196,38.546160541522646],[-0.11862776100118522,38.54644196898505],[-0.11876154059538369,38.546579906415886]]]},"properties":{"id":4290,"area_municipal_m2":507.84,"leyenda":"Muy Bajo","area":508.59008,"hyperlink":"http://www.citma.gva.es/patricova","shape_Leng":129.212723351,"shape_Area":508.590078563}},{"type":"Feature","id":14,"geometry":{"type":"Polygon","coordinates":[[[-0.10476854867899998,38.546438781286895],[-0.10401897055626508,38.54611597897386],[-0.10374669971940209,38.54640078807926],[-0.10329456104817414,38.54685817136958],[-0.10325279093316153,38.54692635942374],[-0.10326763709831877,38.54698533631701],[-0.1031753937832196,38.54708948083807],[-0.10315990261905261,38.547136996022665],[-0.10320582291237157,38.547175369288915],[-0.10328935949167573,38.54728921381652],[-0.10333075056360563,38.54743925077143],[-0.10332605522308924,38.54755618993864],[-0.10327947134287196,38.547704052889614],[-0.10320364553637473,38.5478791615544],[-0.1031174432807429,38.54786211617567],[-0.10227241759600192,38.54878932849593],[-0.10168370328114129,38.549049117475846],[-0.10146131455838736,38.548967642108195],[-0.10137849258091336,38.54904909850079],[-0.1011810542714402,38.54933719251339],[-0.10093768679160853,38.54961189412364],[-0.10087125320984125,38.549697095194894],[-0.10219757164409105,38.55060227645463],[-0.10245225945492775,38.55007142816973],[-0.10268195074642827,38.54954398734353],[-0.10286078122126341,38.54911864735246],[-0.10286134884870224,38.549117368553404],[-0.1029621929043083,38.54889284123407],[-0.1029627089524241,38.54889156115703],[-0.10296372720817892,38.548889631322346],[-0.10303021184115968,38.54876233897308],[-0.10303142968483892,38.54876015280626],[-0.1030328381365977,38.54875779117068],[-0.10310316642545336,38.54864705424763],[-0.1031042646166731,38.5486454191986],[-0.10310586356666507,38.548643170393206],[-0.10316806211720309,38.54855931903876],[-0.10316930357022969,38.54855768753682],[-0.10317038838587855,38.54855638550591],[-0.10323813410892901,38.548474811228715],[-0.10324020463684347,38.548472389405326],[-0.1032435428907661,38.54846896739194],[-0.10333451600033428,38.548381215653016],[-0.10333592600742803,38.548379957710914],[-0.10342667374600545,38.54829681315937],[-0.10342915373987305,38.54829462220335],[-0.10343153729485222,38.54829269013364],[-0.10358883038390321,38.548170560545444],[-0.10380324037123545,38.54799766658422],[-0.10380367780114552,38.54799734406425],[-0.10387972350897101,38.54792560600217],[-0.10401598020453218,38.54779018858206],[-0.10413850538896474,38.54765273277743],[-0.10423708879511917,38.547499516731506],[-0.10431387309531726,38.54736247803838],[-0.10447834012312818,38.54703121689038],[-0.104685694655418,38.546613625167936],[-0.10473298560690081,38.54651834571282],[-0.10476854867899998,38.546438781286895]]]},"properties":{"id":4295,"area_municipal_m2":43322.95,"leyenda":"Muy Bajo","area":43387.81418,"hyperlink":"http://www.citma.gva.es/patricova","shape_Leng":1284.98634139,"shape_Area":43387.814184}},{"type":"Feature","id":15,"geometry":{"type":"Polygon","coordinates":[[[-0.09971347491537186,38.551187874282334],[-0.09954452590408946,38.55112410659627],[-0.09953821608882141,38.55128097135727],[-0.09949520998476524,38.55143469184888],[-0.09971347491537186,38.551187874282334]]]},"properties":{"id":4296,"area_municipal_m2":240.97,"leyenda":"Muy Bajo","area":241.33513,"hyperlink":"http://www.citma.gva.es/patricova","shape_Leng":84.622590436,"shape_Area":241.335125539}},{"type":"Feature","id":16,"geometry":{"type":"Polygon","coordinates":[[[-0.0997543192496324,38.5515914851185],[-0.09948808185325797,38.55146016950906],[-0.0994839468769042,38.55147495149052],[-0.09969615842409407,38.55159004216454],[-0.0997543192496324,38.5515914851185]]]},"properties":{"id":4297,"area_municipal_m2":52.53,"leyenda":"Muy Bajo","area":52.6135,"hyperlink":"http://www.citma.gva.es/patricova","shape_Leng":56.6621777771,"shape_Area":52.6135025396}},{"type":"Feature","id":17,"geometry":{"type":"Polygon","coordinates":[[[-0.10632575727700821,38.55300556650283],[-0.10631761364345182,38.55282256127629],[-0.10614415206154826,38.55251347547631],[-0.1061509936384315,38.5523430046323],[-0.10608438012388932,38.55207314226429],[-0.10595098307627948,38.55192361569839],[-0.10577300945783774,38.55172415297533],[-0.10561160452367302,38.551500685223644],[-0.10551404366361572,38.551230145977094],[-0.10539796541096935,38.551032216064584],[-0.10532913062874183,38.55095108707836],[-0.10517613358966749,38.550770763200106],[-0.10515063051908546,38.55069285700969],[-0.10507955883599429,38.550475742270145],[-0.10506779972819258,38.55030282816228],[-0.10504370577223643,38.55013141157646],[-0.10500462912829711,38.54994737041282],[-0.10494387702770336,38.549576201413586],[-0.10494244158159072,38.5495674303126],[-0.1047018098086534,38.54899999772187],[-0.10452593107638153,38.54875148345386],[-0.1045258829065756,38.54875136874231],[-0.1043703042584685,38.548381482117975],[-0.10422116282739724,38.547852893484205],[-0.10422344069616374,38.54779617403703],[-0.10415731021932784,38.54787033537579],[-0.10415681809579658,38.54787087727498],[-0.10415431470469949,38.547873509131584],[-0.10401580590174753,38.548011159361806],[-0.10401487345658111,38.54801209578523],[-0.10401438584735301,38.548012525177256],[-0.10393545976156382,38.54808699846355],[-0.10393214950986573,38.54808986710894],[-0.10393093174885015,38.548090909086206],[-0.10371312576606373,38.54826652114017],[-0.10371195980571812,38.54826741574149],[-0.10355665576833184,38.54838800907941],[-0.1034689332045362,38.548468386154646],[-0.10338162526301575,38.54855257541986],[-0.10331758161670468,38.5486296691537],[-0.10325787041403744,38.54871014957948],[-0.10319024834014145,38.54881663808268],[-0.10312585079536962,38.548939959487576],[-0.10302604452800512,38.54916222425191],[-0.10293444396311546,38.54938011984057],[-0.10293423569409788,38.54938059218386],[-0.10284731688063964,38.549587310283414],[-0.10284700950942716,38.549587964865935],[-0.10261674997713666,38.55011672535419],[-0.10261587640664604,38.550118622731055],[-0.10222988954321366,38.5509231740319],[-0.10173849009883051,38.55196729973246],[-0.10173843087117262,38.55196763161478],[-0.10173666002803428,38.55197087168449],[-0.1016838776643394,38.55206627586289],[-0.10185178921582905,38.55217424220878],[-0.10191126235916492,38.552212483290624],[-0.10225883979183159,38.55251844947036],[-0.10252471702362165,38.55275249286774],[-0.1029232232003463,38.55286003218083],[-0.10339887342462761,38.55298122882589],[-0.10341803734700017,38.55298611170814],[-0.10390194597456759,38.553109410019914],[-0.10401897010705863,38.55312912979157],[-0.10413923448701379,38.553196484281614],[-0.10423077547933168,38.55324775293996],[-0.10434945190681821,38.55328848280029],[-0.10449936333524734,38.55328151574697],[-0.1046146467625797,38.55327615725823],[-0.10493094716703677,38.55318951203484],[-0.10510696166756794,38.55329410839258],[-0.10533895063464938,38.55327385634574],[-0.1055648068206394,38.55343810545697],[-0.10599378174032381,38.55355855199957],[-0.10626516253646301,38.55335759963727],[-0.10627685908331586,38.55332761360109],[-0.10631695769957661,38.55322482018827],[-0.10632575727700821,38.55300556650283]]]},"properties":{"id":4298,"area_municipal_m2":135839.89,"leyenda":"Muy Bajo","area":136043.10653,"hyperlink":"http://www.citma.gva.es/patricova","shape_Leng":1654.00203341,"shape_Area":136043.106534}}]}